{"type":"FeatureCollection","features":[{"type":"Feature","id":"5en6","properties":{"area_m2":1141383.7},"geometry":{"type":"Polygon","coordinates":[[[4.46597,51.90804],[4.46714,51.90834],[4.47161,51.90968],[4.47622,51.91113],[4.47745,51.91152],[4.47361,51.91634],[4.47259,51.91735],[4.47185,51.91993],[4.47157,51.9211],[4.46958,51.92456],[4.46502,51.9237],[4.46253,51.92344],[4.46273,51.92278],[4.46323,51.92084],[4.46335,51.92008],[4.46311,51.91844],[4.46282,51.91691],[4.46279,51.91629],[4.46296,51.91558],[4.46344,51.91453],[4.46374,51.91357],[4.46377,51.91302],[4.46351,51.91221],[4.46366,51.91171],[4.4643,51.91058],[4.46452,51.91034],[4.46597,51.90804]]]}},{"type":"Feature","id":"12","properties":{"area_m2":857138.0},"geometry":{"type":"Polygon","coordinates":[[[4.46702,51.9016],[4.47409,51.9037],[4.47956,51.90625],[4.48326,51.90906],[4.48439,51.91099],[4.48374,51.91148],[4.48334,51.91246],[4.48334,51.91246],[4.48242,51.91234],[4.47979,51.91218],[4.47745,51.91152],[4.47622,51.91113],[4.47161,51.90968],[4.46714,51.90834],[4.46597,51.90804],[4.46388,51.90673],[4.46702,51.9016]]]}},{"type":"Feature","id":"54","properties":{"area_m2":481304.5},"geometry":{"type":"Polygon","coordinates":[[[4.45623,51.908],[4.45094,51.9087],[4.44924,51.90997],[4.44857,51.90924],[4.44824,51.90493],[4.44894,51.90374],[4.44936,51.90364],[4.45047,51.90348],[4.45164,51.90342],[4.45257,51.90353],[4.45552,51.90402],[4.45698,51.90436],[4.45799,51.90467],[4.45953,51.90514],[4.46388,51.90673],[4.46255,51.90874],[4.46034,51.90906],[4.45623,51.908]]]}},{"type":"Feature","id":"56","properties":{"area_m2":311668.8},"geometry":{"type":"Polygon","coordinates":[[[4.45799,51.90467],[4.45876,51.90244],[4.45395,51.90147],[4.45406,51.90075],[4.45939,51.9007],[4.46254,51.90097],[4.46702,51.9016],[4.46388,51.90673],[4.45953,51.90514],[4.45799,51.90467]]]}},{"type":"Feature","id":"70","properties":{"area_m2":334759.2},"geometry":{"type":"Polygon","coordinates":[[[4.47687,51.92615],[4.47731,51.92616],[4.47715,51.92659],[4.47564,51.92747],[4.47043,51.93079],[4.46999,51.93104],[4.46975,51.93117],[4.46928,51.93078],[4.46634,51.92859],[4.46417,51.92692],[4.46143,51.9265],[4.4622,51.92456],[4.46868,51.92581],[4.46984,51.92629],[4.47212,51.92662],[4.47334,51.92615],[4.47687,51.92615]]]}},{"type":"Feature","id":"74","properties":{"area_m2":255687.7},"geometry":{"type":"Polygon","coordinates":[[[4.45863,51.93011],[4.45851,51.93026],[4.45459,51.92904],[4.45487,51.92854],[4.45408,51.92573],[4.45461,51.92405],[4.45882,51.92456],[4.45911,51.92469],[4.46165,51.92479],[4.4622,51.92456],[4.46143,51.9265],[4.46121,51.92704],[4.45863,51.93011]]]}},{"type":"Feature","id":"58","properties":{"area_m2":51683.7},"geometry":{"type":"Polygon","coordinates":[[[4.44894,51.90374],[4.44876,51.90343],[4.44787,51.90183],[4.44921,51.90164],[4.45275,51.90236],[4.45263,51.90266],[4.45242,51.90302],[4.45257,51.90353],[4.45164,51.90342],[4.45047,51.90348],[4.44936,51.90364],[4.44894,51.90374]]]}},{"type":"Feature","id":"35","properties":{"area_m2":532656.7},"geometry":{"type":"Polygon","coordinates":[[[4.49411,51.90363],[4.48859,51.90259],[4.48059,51.90285],[4.47315,51.89986],[4.47529,51.8991],[4.47655,51.89745],[4.48577,51.89939],[4.49587,51.90148],[4.49614,51.90263],[4.4964,51.90378],[4.49411,51.90363]]]}},{"type":"Feature","id":"66","properties":{"area_m2":68278.7},"geometry":{"type":"Polygon","coordinates":[[[4.53292,51.91888],[4.53284,51.91913],[4.53251,51.91931],[4.5322,51.91935],[4.53095,51.9191],[4.53004,51.91911],[4.52994,51.91894],[4.5311,51.91892],[4.53074,51.91829],[4.53049,51.91748],[4.53048,51.91609],[4.53024,51.91549],[4.5292,51.9157],[4.52911,51.91554],[4.53004,51.91534],[4.53087,51.91509],[4.53137,51.91503],[4.53181,51.91508],[4.53213,51.91518],[4.53246,51.9154],[4.5326,51.91565],[4.53264,51.91592],[4.53258,51.91732],[4.53264,51.9179],[4.53292,51.91888]]]}},{"type":"Feature","id":"2","properties":{"area_m2":537338.1},"geometry":{"type":"Polygon","coordinates":[[[4.49704,51.92282],[4.49644,51.92263],[4.49129,51.92087],[4.49045,51.92048],[4.48847,51.91931],[4.48294,51.91822],[4.48298,51.91391],[4.48314,51.91298],[4.48334,51.91246],[4.48334,51.91246],[4.48505,51.9127],[4.49215,51.91755],[4.495,51.91828],[4.49974,51.91938],[4.49962,51.92043],[4.49951,51.92086],[4.49819,51.92221],[4.49748,51.92201],[4.49727,51.92239],[4.49704,51.92282]]]}},{"type":"Feature","id":"75","properties":{"area_m2":887220.7},"geometry":{"type":"Polygon","coordinates":[[[4.48593,51.92987],[4.4859,51.93054],[4.48621,51.93121],[4.4873,51.93275],[4.48796,51.9333],[4.48912,51.93383],[4.48972,51.93432],[4.48999,51.93493],[4.48986,51.93537],[4.48795,51.93571],[4.48746,51.93607],[4.48717,51.93704],[4.48684,51.9376],[4.48591,51.93834],[4.48566,51.93898],[4.48577,51.93961],[4.48658,51.94032],[4.4865,51.94078],[4.48215,51.9409],[4.4798,51.9407],[4.47935,51.94049],[4.47891,51.94039],[4.47942,51.9382],[4.47937,51.93817],[4.47925,51.93809],[4.47708,51.93659],[4.47659,51.93605],[4.47655,51.936],[4.47593,51.93547],[4.47593,51.93547],[4.47438,51.93438],[4.4723,51.93302],[4.47116,51.93219],[4.46975,51.93117],[4.46975,51.93117],[4.46999,51.93104],[4.47084,51.9317],[4.47267,51.93287],[4.48048,51.92977],[4.4824,51.92921],[4.48306,51.92928],[4.48389,51.92983],[4.48513,51.92965],[4.48593,51.92987]]]}},{"type":"Feature","id":"3","properties":{"area_m2":531965.3},"geometry":{"type":"Polygon","coordinates":[[[4.4811,51.91782],[4.48095,51.91805],[4.48035,51.91899],[4.47985,51.92033],[4.4795,51.92111],[4.47776,51.9244],[4.47857,51.92459],[4.48017,51.9249],[4.47949,51.92574],[4.47728,51.92535],[4.47694,51.92603],[4.46958,51.92456],[4.47157,51.9211],[4.47185,51.91993],[4.47259,51.91735],[4.47361,51.91634],[4.4811,51.91782]]]}},{"type":"Feature","id":"4en5","properties":{"area_m2":779612.3},"geometry":{"type":"Polygon","coordinates":[[[4.46597,51.90804],[4.46714,51.90834],[4.47161,51.90968],[4.47622,51.91113],[4.47745,51.91152],[4.47979,51.91218],[4.48242,51.91234],[4.48334,51.91246],[4.48314,51.91298],[4.48298,51.91391],[4.48294,51.91822],[4.4811,51.91782],[4.47361,51.91634],[4.47126,51.91564],[4.47098,51.91607],[4.47044,51.9159],[4.46895,51.91434],[4.46909,51.9143],[4.46708,51.91301],[4.46353,51.9119],[4.46366,51.91171],[4.4643,51.91058],[4.46452,51.91034],[4.46597,51.90804]]]}},{"type":"Feature","id":"40","properties":{"area_m2":364430.5},"geometry":{"type":"Polygon","coordinates":[[[4.55147,51.9517],[4.55203,51.95044],[4.55211,51.9504],[4.55245,51.95042],[4.55253,51.95022],[4.55321,51.94936],[4.55359,51.94848],[4.55369,51.94778],[4.55539,51.94399],[4.55587,51.94423],[4.55675,51.94392],[4.55768,51.94495],[4.55804,51.94481],[4.55917,51.94604],[4.55968,51.94649],[4.56031,51.94717],[4.55951,51.94744],[4.55918,51.94789],[4.56032,51.94806],[4.56115,51.94779],[4.56487,51.94828],[4.56433,51.9496],[4.5638,51.94954],[4.56337,51.9505],[4.56391,51.9506],[4.56383,51.95071],[4.56322,51.95085],[4.56014,51.95043],[4.55542,51.94972],[4.55482,51.95115],[4.55512,51.95116],[4.55498,51.95182],[4.55202,51.95158],[4.55168,51.95178],[4.5511,51.9531],[4.55089,51.95309],[4.55147,51.9517]]]}},{"type":"Feature","id":"23","properties":{"area_m2":688970.5},"geometry":{"type":"Polygon","coordinates":[[[4.49263,51.88853],[4.49406,51.88928],[4.49436,51.8896],[4.49422,51.89232],[4.49407,51.89426],[4.49561,51.8974],[4.49493,51.89727],[4.49011,51.89621],[4.4876,51.89586],[4.48659,51.89568],[4.48494,51.8951],[4.47691,51.89336],[4.4756,51.89297],[4.47503,51.89255],[4.48816,51.88965],[4.49263,51.88853]]]}},{"type":"Feature","id":"999","properties":{"area_m2":54519.1},"geometry":{"type":"Polygon","coordinates":[[[4.43463,51.92769],[4.43486,51.92762],[4.43886,51.9299],[4.43767,51.93055],[4.4372,51.93044],[4.43311,51.92883],[4.43463,51.92769]]]}},{"type":"Feature","id":"20","properties":{"area_m2":891822.6},"geometry":{"type":"Polygon","coordinates":[[[4.49203,51.88543],[4.49251,51.88776],[4.49263,51.88853],[4.48816,51.88965],[4.47503,51.89255],[4.47397,51.89182],[4.4723,51.88955],[4.47189,51.88747],[4.47179,51.88686],[4.47182,51.8867],[4.47155,51.88574],[4.47131,51.88417],[4.47103,51.88319],[4.47529,51.88302],[4.47547,51.88515],[4.47587,51.88522],[4.48,51.88563],[4.47985,51.88608],[4.48179,51.88629],[4.48226,51.88628],[4.48691,51.88522],[4.48813,51.88482],[4.48856,51.88478],[4.48986,51.8848],[4.49096,51.88495],[4.4914,51.88509],[4.49203,51.88543]]]}},{"type":"Feature","id":"38","properties":{"area_m2":748676.0},"geometry":{"type":"Polygon","coordinates":[[[4.49934,51.91288],[4.50289,51.91045],[4.50456,51.9093],[4.50729,51.90718],[4.50758,51.90731],[4.50959,51.90544],[4.5097,51.90562],[4.50987,51.90561],[4.50976,51.9053],[4.51158,51.90336],[4.51188,51.90298],[4.51184,51.90297],[4.51194,51.90285],[4.51199,51.90286],[4.51294,51.90175],[4.51409,51.90215],[4.5143,51.90365],[4.5141,51.90585],[4.51424,51.90811],[4.51419,51.90894],[4.51371,51.91071],[4.51312,51.91153],[4.51215,51.91256],[4.51033,51.91386],[4.50845,51.91485],[4.5074,51.91519],[4.50609,51.91553],[4.50421,51.91542],[4.49934,51.91288]]]}},{"type":"Feature","id":"41","properties":{"area_m2":53062.5},"geometry":{"type":"Polygon","coordinates":[[[4.55473,51.92061],[4.55938,51.92205],[4.55898,51.92365],[4.55866,51.92352],[4.55857,51.92377],[4.55529,51.92215],[4.55473,51.92061]]]}},{"type":"Feature","id":"34","properties":{"area_m2":940183.3},"geometry":{"type":"Polygon","coordinates":[[[4.51431,51.89052],[4.50982,51.89373],[4.50945,51.89383],[4.5082,51.89435],[4.50235,51.89761],[4.50174,51.89825],[4.49982,51.89814],[4.49776,51.89782],[4.49493,51.89727],[4.49357,51.89439],[4.49354,51.89423],[4.49376,51.88976],[4.49406,51.88928],[4.49646,51.88943],[4.50607,51.88971],[4.50758,51.88972],[4.51371,51.89036],[4.51431,51.89052]]]}},{"type":"Feature","id":"65","properties":{"area_m2":784844.8},"geometry":{"type":"Polygon","coordinates":[[[4.50248,51.93361],[4.49915,51.93633],[4.49575,51.93922],[4.49284,51.93784],[4.49259,51.93803],[4.4923,51.93788],[4.49258,51.93763],[4.4912,51.93694],[4.49028,51.93583],[4.48955,51.93602],[4.4885,51.93649],[4.48765,51.93769],[4.48695,51.9388],[4.48677,51.9392],[4.48684,51.93946],[4.48723,51.93978],[4.48779,51.94021],[4.48838,51.94053],[4.48833,51.94114],[4.48739,51.94101],[4.4865,51.94078],[4.48658,51.94032],[4.48577,51.93961],[4.48566,51.93898],[4.48591,51.93834],[4.48684,51.9376],[4.48717,51.93704],[4.48746,51.93607],[4.48795,51.93571],[4.48986,51.93537],[4.48999,51.93493],[4.48972,51.93432],[4.48912,51.93383],[4.48796,51.9333],[4.4873,51.93275],[4.48621,51.93121],[4.4859,51.93054],[4.48593,51.92987],[4.48674,51.92986],[4.48855,51.92963],[4.48958,51.92955],[4.49038,51.92962],[4.49099,51.92981],[4.49725,51.92998],[4.49756,51.92949],[4.49818,51.92936],[4.49863,51.92982],[4.50053,51.93224],[4.50151,51.9326],[4.50248,51.93361]]]}},{"type":"Feature","id":"37","properties":{"area_m2":246960.9},"geometry":{"type":"Polygon","coordinates":[[[4.49595,51.91548],[4.4951,51.91492],[4.48985,51.91179],[4.48911,51.91124],[4.48863,51.91082],[4.48797,51.91001],[4.48798,51.90986],[4.489,51.90943],[4.48918,51.90943],[4.49255,51.9107],[4.49986,51.91469],[4.50296,51.91646],[4.50244,51.91682],[4.49928,51.91659],[4.49798,51.91629],[4.49738,51.91625],[4.49672,51.91594],[4.49657,51.91573],[4.49595,51.91548]]]}},{"type":"Feature","id":"24","properties":{"area_m2":118790.1},"geometry":{"type":"Polygon","coordinates":[[[4.48494,51.8951],[4.48659,51.89568],[4.4876,51.89586],[4.49011,51.89621],[4.49493,51.89727],[4.49529,51.89815],[4.48594,51.89614],[4.48587,51.89626],[4.47652,51.89417],[4.47691,51.89336],[4.48494,51.8951]]]}},{"type":"Feature","id":"64","properties":{"area_m2":1204878.1},"geometry":{"type":"Polygon","coordinates":[[[4.51895,51.90573],[4.52394,51.90167],[4.52844,51.90099],[4.54162,51.90519],[4.53502,51.91379],[4.53381,51.91397],[4.5318,51.91356],[4.52788,51.91385],[4.52612,51.91087],[4.52582,51.9102],[4.52524,51.90951],[4.52724,51.90718],[4.52759,51.90643],[4.52704,51.90582],[4.52192,51.90579],[4.51895,51.90573]]]}},{"type":"Feature","id":"69","properties":{"area_m2":68253.5},"geometry":{"type":"Polygon","coordinates":[[[4.53405,51.92524],[4.53247,51.92266],[4.53361,51.9223],[4.53474,51.9221],[4.53527,51.92205],[4.53703,51.925],[4.53405,51.92524]]]}},{"type":"Feature","id":"53","properties":{"area_m2":1271065.9},"geometry":{"type":"Polygon","coordinates":[[[4.45478,51.92302],[4.44938,51.92308],[4.44132,51.92241],[4.44053,51.92237],[4.44071,51.92165],[4.43743,51.92171],[4.43807,51.92121],[4.44004,51.92005],[4.4434,51.91736],[4.44444,51.91599],[4.44654,51.91301],[4.44767,51.91167],[4.44924,51.90997],[4.45094,51.9087],[4.45623,51.908],[4.46034,51.90906],[4.46009,51.90984],[4.4595,51.90987],[4.45791,51.90946],[4.45754,51.91003],[4.45695,51.90987],[4.45675,51.91057],[4.45597,51.91234],[4.4559,51.91251],[4.45556,51.9137],[4.45549,51.91396],[4.45522,51.91779],[4.4555,51.92096],[4.45469,51.92133],[4.4549,51.9223],[4.45478,51.92302]]]}},{"type":"Feature","id":"52","properties":{"area_m2":2065682.5},"geometry":{"type":"Polygon","coordinates":[[[4.41753,51.90148],[4.42047,51.90196],[4.42486,51.9024],[4.43578,51.90255],[4.43615,51.90375],[4.438,51.90458],[4.43981,51.90533],[4.44113,51.90569],[4.43402,51.91036],[4.43366,51.91065],[4.43281,51.91218],[4.4324,51.91244],[4.43185,51.91255],[4.43053,51.91247],[4.43032,51.91311],[4.42694,51.91325],[4.41351,51.91395],[4.4135,51.91391],[4.41278,51.91392],[4.41269,51.91389],[4.41267,51.91388],[4.41254,51.91373],[4.41253,51.9137],[4.41239,51.9133],[4.41224,51.91327],[4.41222,51.91325],[4.41205,51.91314],[4.40908,51.91205],[4.40954,51.91041],[4.41,51.90985],[4.41135,51.91027],[4.41345,51.90768],[4.4133,51.90728],[4.41362,51.90688],[4.41568,51.90502],[4.41234,51.90242],[4.41371,51.90075],[4.41753,51.90148]]]}},{"type":"Feature","id":"80","properties":{"area_m2":1445523.2},"geometry":{"type":"Polygon","coordinates":[[[4.48836,51.95545],[4.48533,51.94858],[4.4756,51.94954],[4.4754,51.94901],[4.47513,51.94905],[4.47485,51.94932],[4.4716,51.94986],[4.47165,51.94961],[4.47249,51.9494],[4.47224,51.94887],[4.47108,51.94866],[4.47134,51.94816],[4.47174,51.94793],[4.47271,51.94607],[4.47294,51.94598],[4.47247,51.94596],[4.46633,51.94659],[4.4654,51.94656],[4.46453,51.94677],[4.46062,51.94681],[4.46072,51.94472],[4.46596,51.94474],[4.46879,51.94397],[4.46955,51.94079],[4.47684,51.94171],[4.4856,51.94289],[4.48737,51.9415],[4.48926,51.94183],[4.4884,51.94408],[4.49189,51.94535],[4.49554,51.94543],[4.49582,51.94558],[4.49625,51.94563],[4.4963,51.94584],[4.49615,51.94587],[4.49479,51.94606],[4.49283,51.94615],[4.49073,51.94584],[4.48723,51.94746],[4.49443,51.95272],[4.49256,51.95359],[4.49227,51.95372],[4.49243,51.95384],[4.4922,51.95396],[4.492,51.95384],[4.48836,51.95545]]]}},{"type":"Feature","id":"81","properties":{"area_m2":77263.9},"geometry":{"type":"Polygon","coordinates":[[[4.49256,51.95359],[4.49381,51.95503],[4.49549,51.95415],[4.49566,51.9543],[4.49396,51.95514],[4.4944,51.95547],[4.4948,51.95555],[4.4964,51.95653],[4.49783,51.95699],[4.49719,51.95738],[4.49502,51.95849],[4.49298,51.95948],[4.49262,51.95914],[4.493,51.95898],[4.49233,51.95843],[4.49251,51.95835],[4.49342,51.95909],[4.4945,51.95853],[4.49427,51.95748],[4.49424,51.95582],[4.49272,51.95438],[4.49237,51.95417],[4.48895,51.95592],[4.48836,51.95545],[4.492,51.95384],[4.4922,51.95396],[4.49243,51.95384],[4.49227,51.95372],[4.49256,51.95359]]]}},{"type":"Feature","id":"30","properties":{"area_m2":616695.1},"geometry":{"type":"Polygon","coordinates":[[[4.52035,51.89144],[4.51742,51.89491],[4.51525,51.89782],[4.51463,51.89856],[4.5138,51.89903],[4.51302,51.89931],[4.51231,51.89948],[4.51104,51.89971],[4.51062,51.89927],[4.51008,51.89943],[4.50905,51.89894],[4.50809,51.89869],[4.50656,51.89843],[4.50473,51.89833],[4.50174,51.89825],[4.50235,51.89761],[4.5082,51.89435],[4.50945,51.89383],[4.50982,51.89373],[4.51431,51.89052],[4.51915,51.89104],[4.52035,51.89144]]]}},{"type":"Feature","id":"62","properties":{"area_m2":650127.3},"geometry":{"type":"Polygon","coordinates":[[[4.52523,51.90952],[4.52581,51.9102],[4.52611,51.91087],[4.52787,51.91386],[4.52153,51.91562],[4.51991,51.91583],[4.51638,51.9157],[4.51516,51.91519],[4.51657,51.91387],[4.51778,51.91206],[4.51815,51.91052],[4.51894,51.90574],[4.52191,51.90579],[4.52703,51.90582],[4.52758,51.90643],[4.52723,51.90719],[4.52523,51.90952]]]}},{"type":"Feature","id":"50","properties":{"area_m2":902496.8},"geometry":{"type":"Polygon","coordinates":[[[4.46597,51.90804],[4.46452,51.91034],[4.4643,51.91058],[4.46366,51.91171],[4.46351,51.91221],[4.46377,51.91302],[4.46374,51.91357],[4.46344,51.91453],[4.46296,51.91558],[4.46279,51.91629],[4.46282,51.91691],[4.46311,51.91844],[4.46335,51.92008],[4.46323,51.92084],[4.46273,51.92278],[4.46253,51.92344],[4.46004,51.92321],[4.45478,51.92302],[4.4549,51.9223],[4.45469,51.92133],[4.4555,51.92096],[4.45522,51.91779],[4.45549,51.91396],[4.45556,51.9137],[4.4559,51.91251],[4.45597,51.91234],[4.45675,51.91057],[4.45695,51.90987],[4.45748,51.90962],[4.45765,51.90939],[4.4557,51.90883],[4.45623,51.908],[4.46034,51.90906],[4.46255,51.90874],[4.46388,51.90673],[4.46597,51.90804]]]}},{"type":"Feature","id":"28","properties":{"area_m2":2173689.0},"geometry":{"type":"Polygon","coordinates":[[[4.47045,51.88218],[4.46973,51.88139],[4.46759,51.87997],[4.46021,51.87543],[4.45857,51.87426],[4.45737,51.8732],[4.45676,51.8726],[4.45568,51.87149],[4.4551,51.87087],[4.4547,51.87051],[4.45499,51.8698],[4.45483,51.86968],[4.45542,51.86901],[4.45602,51.86901],[4.4573,51.86826],[4.45766,51.86788],[4.45864,51.86724],[4.45996,51.8663],[4.46164,51.86541],[4.46253,51.86521],[4.46278,51.86534],[4.46416,51.86538],[4.46456,51.86537],[4.46494,51.86527],[4.46622,51.86522],[4.4682,51.86521],[4.46927,51.86528],[4.47239,51.86502],[4.47535,51.86494],[4.4764,51.86759],[4.47743,51.87144],[4.47806,51.87415],[4.47896,51.87749],[4.47983,51.88031],[4.47643,51.88122],[4.47179,51.88166],[4.47045,51.88218]]]}},{"type":"Feature","id":"92","properties":{"area_m2":2205271.8},"geometry":{"type":"Polygon","coordinates":[[[4.52249,51.88659],[4.5226,51.88594],[4.52258,51.88544],[4.52212,51.88433],[4.52145,51.88296],[4.51999,51.88264],[4.51647,51.88228],[4.51612,51.88216],[4.51561,51.88256],[4.51499,51.88247],[4.51406,51.88244],[4.51366,51.88238],[4.5131,51.88216],[4.51263,51.88184],[4.51161,51.88126],[4.5111,51.88089],[4.51054,51.88028],[4.50984,51.87973],[4.50924,51.87944],[4.50599,51.87765],[4.50599,51.87765],[4.51084,51.87542],[4.51448,51.87181],[4.51508,51.87065],[4.5153,51.86945],[4.51529,51.8692],[4.51952,51.8692],[4.52284,51.86908],[4.52555,51.86971],[4.52637,51.87001],[4.52709,51.8694],[4.52772,51.86925],[4.53008,51.86894],[4.53168,51.86885],[4.5321,51.86884],[4.53275,51.86895],[4.5346,51.86933],[4.53534,51.86952],[4.53408,51.86998],[4.53221,51.87053],[4.5293,51.8716],[4.53016,51.87193],[4.53131,51.87275],[4.53217,51.87362],[4.53251,51.87421],[4.53281,51.87494],[4.53293,51.8757],[4.53292,51.87624],[4.53251,51.87773],[4.53087,51.87992],[4.5248,51.88666],[4.52249,51.88659]]]}},{"type":"Feature","id":"31","properties":{"area_m2":1925397.5},"geometry":{"type":"Polygon","coordinates":[[[4.51431,51.89052],[4.51371,51.89036],[4.50758,51.88972],[4.50607,51.88971],[4.49646,51.88943],[4.49406,51.88928],[4.49263,51.88853],[4.49251,51.88776],[4.49203,51.88543],[4.49253,51.88505],[4.4933,51.88464],[4.49389,51.88439],[4.49621,51.88367],[4.49769,51.88315],[4.49879,51.88256],[4.50413,51.87864],[4.50599,51.87765],[4.50924,51.87944],[4.50984,51.87973],[4.51054,51.88028],[4.5111,51.88089],[4.51161,51.88126],[4.51263,51.88184],[4.5131,51.88216],[4.51366,51.88238],[4.51406,51.88244],[4.51499,51.88247],[4.51561,51.88256],[4.51612,51.88216],[4.51647,51.88228],[4.51999,51.88264],[4.52145,51.88296],[4.52212,51.88433],[4.52258,51.88544],[4.5226,51.88594],[4.52249,51.88659],[4.52221,51.88813],[4.52246,51.88877],[4.52241,51.88905],[4.52035,51.89144],[4.51915,51.89104],[4.51431,51.89052]]]}},{"type":"Feature","id":"72","properties":{"area_m2":1333845.1},"geometry":{"type":"Polygon","coordinates":[[[4.47267,51.93287],[4.4739,51.93379],[4.4749,51.93441],[4.4749,51.93442],[4.4755,51.93479],[4.47667,51.93577],[4.47727,51.93642],[4.47895,51.93752],[4.47988,51.93808],[4.47935,51.94049],[4.47891,51.94039],[4.47942,51.9382],[4.47937,51.93817],[4.47708,51.93658],[4.47659,51.93605],[4.47655,51.936],[4.47593,51.93547],[4.47438,51.93438],[4.4723,51.93302],[4.47116,51.93219],[4.47015,51.93283],[4.46932,51.93345],[4.46892,51.93491],[4.46806,51.93872],[4.46775,51.93908],[4.46752,51.93999],[4.4642,51.93933],[4.46245,51.93836],[4.4525,51.93531],[4.44733,51.93453],[4.44072,51.93079],[4.44158,51.93031],[4.44312,51.93002],[4.44629,51.92976],[4.44928,51.92923],[4.45093,51.92903],[4.45212,51.92896],[4.45288,51.92896],[4.45382,51.92906],[4.45448,51.9292],[4.45459,51.92904],[4.45851,51.93026],[4.45863,51.93011],[4.46117,51.93094],[4.46183,51.93111],[4.46222,51.93073],[4.46356,51.93118],[4.46648,51.93142],[4.46706,51.93143],[4.46928,51.93078],[4.46975,51.93117],[4.46999,51.93104],[4.47084,51.9317],[4.47267,51.93287]]]}},{"type":"Feature","id":"76","properties":{"area_m2":556097.6},"geometry":{"type":"Polygon","coordinates":[[[4.46999,51.93104],[4.47084,51.9317],[4.47267,51.93287],[4.4739,51.93379],[4.4749,51.93441],[4.4749,51.93442],[4.4755,51.93479],[4.47667,51.93577],[4.47727,51.93642],[4.47895,51.93752],[4.47988,51.93808],[4.47935,51.94049],[4.47986,51.94105],[4.47926,51.94139],[4.46752,51.93999],[4.46775,51.93908],[4.46907,51.93362],[4.46934,51.93314],[4.46983,51.9327],[4.47093,51.93203],[4.46975,51.93117],[4.46975,51.93117],[4.46999,51.93104]]]}},{"type":"Feature","id":"57","properties":{"area_m2":479678.5},"geometry":{"type":"Polygon","coordinates":[[[4.41524,51.91392],[4.41608,51.91384],[4.42687,51.91327],[4.4292,51.9132],[4.43037,51.91323],[4.42856,51.91448],[4.42671,51.91559],[4.42549,51.91653],[4.42266,51.92031],[4.41728,51.91998],[4.41574,51.91458],[4.41533,51.91461],[4.41524,51.91392]]]}},{"type":"Feature","id":"33","properties":{"area_m2":676278.8},"geometry":{"type":"Polygon","coordinates":[[[4.51167,51.90049],[4.50761,51.90232],[4.50467,51.90335],[4.50287,51.90408],[4.50316,51.90417],[4.49241,51.90904],[4.49164,51.90871],[4.49781,51.90605],[4.49687,51.90518],[4.49454,51.90615],[4.49406,51.90575],[4.49644,51.90477],[4.4964,51.90378],[4.49614,51.90263],[4.49587,51.90148],[4.49572,51.90096],[4.49529,51.89815],[4.49493,51.89727],[4.49776,51.89782],[4.49982,51.89814],[4.50174,51.89825],[4.50473,51.89833],[4.50656,51.89843],[4.50809,51.89869],[4.50905,51.89894],[4.51008,51.89943],[4.51167,51.90049]]]}},{"type":"Feature","id":"13","properties":{"area_m2":277294.9},"geometry":{"type":"Polygon","coordinates":[[[4.50287,51.90408],[4.50316,51.90417],[4.49241,51.90904],[4.49164,51.90871],[4.48819,51.90723],[4.48252,51.90427],[4.4842,51.903],[4.49058,51.90596],[4.49339,51.90603],[4.49406,51.90575],[4.49644,51.90477],[4.49687,51.90518],[4.49781,51.90605],[4.50227,51.90412],[4.50238,51.90395],[4.50287,51.90408]]]}},{"type":"Feature","id":"27","properties":{"area_m2":832091.1},"geometry":{"type":"Polygon","coordinates":[[[4.45676,51.8726],[4.45737,51.8732],[4.45857,51.87426],[4.46021,51.87543],[4.46759,51.87997],[4.46973,51.88139],[4.47045,51.88218],[4.47103,51.88319],[4.46541,51.8834],[4.46544,51.88367],[4.46469,51.88368],[4.46307,51.88381],[4.46239,51.88394],[4.46033,51.88444],[4.45949,51.884],[4.45886,51.8841],[4.45873,51.8847],[4.45866,51.88479],[4.45787,51.88493],[4.45491,51.87983],[4.45383,51.87801],[4.4537,51.87698],[4.45411,51.87415],[4.45374,51.87331],[4.45598,51.87288],[4.45676,51.8726]]]}},{"type":"Feature","id":"21","properties":{"area_m2":2497917.7},"geometry":{"type":"Polygon","coordinates":[[[4.45491,51.87983],[4.45787,51.88493],[4.45866,51.88479],[4.45813,51.88543],[4.46077,51.89008],[4.46283,51.8932],[4.46196,51.89335],[4.46226,51.89367],[4.46317,51.89418],[4.46245,51.89478],[4.46168,51.8949],[4.46169,51.89576],[4.46069,51.89576],[4.46087,51.89829],[4.44851,51.89859],[4.43803,51.90013],[4.43601,51.89955],[4.44764,51.88087],[4.45491,51.87983]]]}},{"type":"Feature","id":"25","properties":{"area_m2":1156728.7},"geometry":{"type":"Polygon","coordinates":[[[4.47103,51.88319],[4.47131,51.88417],[4.47155,51.88574],[4.47182,51.8867],[4.47179,51.88686],[4.47189,51.88747],[4.4723,51.88955],[4.47397,51.89182],[4.47503,51.89255],[4.4756,51.89297],[4.47691,51.89336],[4.47546,51.89338],[4.47409,51.89356],[4.47114,51.89478],[4.46927,51.89574],[4.47012,51.8972],[4.46899,51.89768],[4.4677,51.89763],[4.46749,51.89819],[4.46688,51.8984],[4.4649,51.89805],[4.46172,51.8977],[4.46169,51.89576],[4.46168,51.8949],[4.46245,51.89478],[4.46317,51.89418],[4.46226,51.89367],[4.46196,51.89335],[4.46283,51.8932],[4.4639,51.89302],[4.46386,51.89275],[4.4618,51.8894],[4.46093,51.88815],[4.46001,51.88662],[4.4601,51.8866],[4.45999,51.88635],[4.45986,51.88638],[4.45904,51.885],[4.45873,51.8847],[4.45886,51.8841],[4.45949,51.884],[4.46033,51.88444],[4.46239,51.88394],[4.46307,51.88381],[4.46469,51.88368],[4.46544,51.88367],[4.46541,51.8834],[4.47103,51.88319]]]}},{"type":"Feature","id":"91","properties":{"area_m2":1789538.2},"geometry":{"type":"Polygon","coordinates":[[[4.54272,51.88608],[4.54201,51.88737],[4.54272,51.88794],[4.54401,51.88925],[4.5453,51.89198],[4.5456,51.89267],[4.54564,51.89317],[4.54536,51.89466],[4.54579,51.89541],[4.54451,51.89647],[4.53747,51.89584],[4.52931,51.89486],[4.52825,51.89453],[4.52817,51.89426],[4.5279,51.89407],[4.5217,51.89202],[4.52537,51.88731],[4.53164,51.88045],[4.5336,51.88111],[4.53484,51.8816],[4.53558,51.8822],[4.53692,51.8832],[4.54272,51.88608]]]}},{"type":"Feature","id":"95","properties":{"area_m2":1242401.7},"geometry":{"type":"Polygon","coordinates":[[[4.54579,51.89541],[4.54536,51.89466],[4.54564,51.89317],[4.5456,51.89267],[4.5453,51.89198],[4.54401,51.88925],[4.54272,51.88794],[4.54201,51.88737],[4.54272,51.88608],[4.54532,51.8858],[4.54765,51.88563],[4.55017,51.88565],[4.55125,51.88564],[4.55381,51.88541],[4.55977,51.88457],[4.56123,51.88459],[4.56307,51.88494],[4.5612,51.88977],[4.56056,51.89099],[4.55875,51.89277],[4.55586,51.89436],[4.55215,51.89551],[4.55179,51.89608],[4.55028,51.89626],[4.54817,51.89615],[4.54579,51.89541]]]}},{"type":"Feature","id":"93","properties":{"area_m2":2107805.1},"geometry":{"type":"Polygon","coordinates":[[[4.56307,51.88494],[4.56123,51.88459],[4.55977,51.88457],[4.55381,51.88541],[4.55125,51.88564],[4.55017,51.88565],[4.54765,51.88563],[4.54532,51.8858],[4.54272,51.88608],[4.53692,51.8832],[4.53558,51.8822],[4.53484,51.8816],[4.5336,51.88111],[4.53164,51.88045],[4.53442,51.87744],[4.53916,51.8789],[4.54083,51.87541],[4.54164,51.87423],[4.54307,51.87267],[4.54397,51.87185],[4.54473,51.87245],[4.54586,51.87289],[4.54799,51.87381],[4.54957,51.87442],[4.55115,51.87474],[4.55216,51.87485],[4.55426,51.87548],[4.55605,51.87611],[4.55711,51.87664],[4.55869,51.87736],[4.5608,51.87809],[4.56325,51.87838],[4.56552,51.87824],[4.56307,51.88494]]]}},{"type":"Feature","id":"98","properties":{"area_m2":585515.4},"geometry":{"type":"Polygon","coordinates":[[[4.54397,51.87185],[4.54307,51.87267],[4.54164,51.87423],[4.54083,51.87541],[4.53916,51.8789],[4.53442,51.87744],[4.53279,51.87705],[4.53305,51.87609],[4.53294,51.87508],[4.53245,51.87387],[4.53146,51.87279],[4.53059,51.8721],[4.5295,51.8716],[4.52956,51.87153],[4.53257,51.87044],[4.53387,51.87006],[4.53549,51.86949],[4.53643,51.86972],[4.53753,51.86986],[4.53865,51.86993],[4.54001,51.87017],[4.54257,51.87084],[4.54303,51.87117],[4.54346,51.87135],[4.54397,51.87185]]]}},{"type":"Feature","id":"33 P","properties":{"area_m2":11172.2},"geometry":{"type":"Polygon","coordinates":[[[4.49649,51.90139],[4.49605,51.90141],[4.49547,51.89888],[4.49537,51.89824],[4.49579,51.89817],[4.49596,51.8989],[4.49649,51.90139]]]}},{"type":"Feature","id":"26","properties":{"area_m2":80785.9},"geometry":{"type":"Polygon","coordinates":[[[4.45873,51.8847],[4.45904,51.885],[4.45986,51.88638],[4.45999,51.88635],[4.4601,51.8866],[4.46001,51.88662],[4.46093,51.88815],[4.4618,51.8894],[4.46386,51.89275],[4.4639,51.89302],[4.46283,51.8932],[4.46077,51.89008],[4.45813,51.88543],[4.45866,51.88479],[4.45873,51.8847]]]}},{"type":"Feature","id":"90","properties":{"area_m2":175740.4},"geometry":{"type":"Polygon","coordinates":[[[4.52652,51.89534],[4.52662,51.89551],[4.52614,51.89562],[4.52646,51.89629],[4.52803,51.89598],[4.52819,51.8971],[4.52656,51.89724],[4.5228,51.89809],[4.52083,51.8986],[4.51958,51.89783],[4.51948,51.89771],[4.51897,51.89711],[4.51821,51.8961],[4.52005,51.89395],[4.52138,51.89439],[4.52128,51.8945],[4.52247,51.89489],[4.52127,51.89631],[4.52642,51.8952],[4.52652,51.89534]]]}},{"type":"Feature","id":"29","properties":{"area_m2":3118960.1},"geometry":{"type":"Polygon","coordinates":[[[4.5153,51.86945],[4.51508,51.87065],[4.51448,51.87181],[4.51084,51.87542],[4.50599,51.87765],[4.50413,51.87864],[4.49879,51.88256],[4.49407,51.8799],[4.49284,51.88008],[4.49163,51.87962],[4.49089,51.87901],[4.48863,51.87863],[4.48893,51.87742],[4.48804,51.87729],[4.48617,51.87933],[4.48657,51.88157],[4.48444,51.88222],[4.48265,51.88325],[4.48147,51.8825],[4.48056,51.88153],[4.47983,51.88031],[4.47896,51.87749],[4.47806,51.87415],[4.47743,51.87144],[4.4764,51.86759],[4.47535,51.86494],[4.47562,51.86506],[4.47605,51.86512],[4.47783,51.86511],[4.47924,51.86523],[4.4799,51.86538],[4.48026,51.86546],[4.48079,51.86547],[4.48087,51.86551],[4.48152,51.86562],[4.48331,51.86602],[4.48426,51.86611],[4.48575,51.8666],[4.4871,51.86713],[4.48876,51.86727],[4.48973,51.86766],[4.49341,51.86878],[4.49453,51.8688],[4.49446,51.86953],[4.49518,51.86958],[4.49577,51.86923],[4.50207,51.86925],[4.50207,51.86953],[4.5153,51.86945]]]}},{"type":"Feature","id":"22","properties":{"area_m2":756733.7},"geometry":{"type":"Polygon","coordinates":[[[4.45568,51.87149],[4.45289,51.87126],[4.45077,51.87053],[4.45111,51.86911],[4.44862,51.86882],[4.44729,51.86847],[4.44677,51.86763],[4.45016,51.86619],[4.45887,51.86396],[4.46239,51.8631],[4.46552,51.86267],[4.46834,51.86244],[4.47428,51.86259],[4.48017,51.86321],[4.48016,51.86508],[4.4799,51.86538],[4.47924,51.86523],[4.47783,51.86511],[4.47605,51.86512],[4.47562,51.86506],[4.47535,51.86494],[4.47239,51.86502],[4.46927,51.86528],[4.4682,51.86521],[4.46622,51.86522],[4.46494,51.86527],[4.46456,51.86537],[4.46416,51.86538],[4.46278,51.86534],[4.46253,51.86521],[4.46164,51.86541],[4.45996,51.8663],[4.45864,51.86724],[4.45766,51.86788],[4.4573,51.86826],[4.45602,51.86901],[4.45542,51.86901],[4.45483,51.86968],[4.45499,51.8698],[4.4547,51.87051],[4.4551,51.87087],[4.45568,51.87149]]]}},{"type":"Feature","id":"60","properties":{"area_m2":482480.1},"geometry":{"type":"Polygon","coordinates":[[[4.49962,51.92043],[4.49974,51.91938],[4.5004,51.91945],[4.50183,51.91954],[4.50367,51.9193],[4.50373,51.91949],[4.50546,51.91896],[4.50864,51.91828],[4.51139,51.91731],[4.51382,51.91618],[4.51479,51.91552],[4.51734,51.91614],[4.51831,51.91672],[4.51925,51.91787],[4.51805,51.91823],[4.51766,51.91779],[4.51541,51.91957],[4.51427,51.91996],[4.51412,51.91991],[4.50971,51.92101],[4.50875,51.92122],[4.50865,51.9213],[4.50314,51.92248],[4.49931,51.92317],[4.49838,51.92331],[4.49783,51.92301],[4.49704,51.92282],[4.49727,51.92239],[4.49748,51.92201],[4.49819,51.92221],[4.49951,51.92086],[4.49962,51.92043]]]}},{"type":"Feature","id":"73","properties":{"area_m2":341997.7},"geometry":{"type":"Polygon","coordinates":[[[4.46143,51.9265],[4.46417,51.92692],[4.46634,51.92859],[4.46928,51.93078],[4.46975,51.93117],[4.46726,51.93182],[4.46451,51.93509],[4.46458,51.93512],[4.46353,51.93634],[4.46344,51.93633],[4.46274,51.93715],[4.46223,51.93697],[4.46289,51.93623],[4.46286,51.93607],[4.46394,51.93491],[4.4642,51.93473],[4.46485,51.93382],[4.46269,51.93237],[4.46244,51.93242],[4.4613,51.93192],[4.46165,51.93153],[4.45838,51.93043],[4.45851,51.93026],[4.45863,51.93011],[4.46121,51.92704],[4.46143,51.9265]]]}},{"type":"Feature","id":"51","properties":{"area_m2":1807224.2},"geometry":{"type":"Polygon","coordinates":[[[4.4434,51.91736],[4.44004,51.92005],[4.43807,51.92121],[4.43743,51.92171],[4.43623,51.9216],[4.43212,51.92059],[4.42936,51.92069],[4.42537,51.92095],[4.425,51.92083],[4.42466,51.92065],[4.42445,51.9204],[4.4244,51.92018],[4.42446,51.91998],[4.4246,51.91976],[4.42515,51.91921],[4.42627,51.91783],[4.42702,51.91718],[4.42689,51.91686],[4.42756,51.91624],[4.42806,51.91633],[4.43115,51.91393],[4.44243,51.9063],[4.44157,51.9058],[4.43982,51.90532],[4.43802,51.90457],[4.43818,51.90421],[4.43756,51.90389],[4.43765,51.9037],[4.44067,51.9032],[4.44735,51.9019],[4.44791,51.90354],[4.44876,51.90343],[4.44787,51.90183],[4.44921,51.90164],[4.45275,51.90236],[4.45263,51.90266],[4.45242,51.90302],[4.45257,51.90353],[4.45164,51.90342],[4.45047,51.90348],[4.44936,51.90364],[4.44894,51.90374],[4.44824,51.90493],[4.44857,51.90924],[4.44924,51.90997],[4.44767,51.91167],[4.44654,51.91301],[4.44444,51.91599],[4.4434,51.91736]]]}},{"type":"Feature","id":"61","properties":{"area_m2":551284.2},"geometry":{"type":"Polygon","coordinates":[[[4.49818,51.92936],[4.49756,51.92949],[4.49725,51.92998],[4.49099,51.92981],[4.49038,51.92962],[4.48958,51.92955],[4.48855,51.92963],[4.48674,51.92986],[4.48593,51.92987],[4.48493,51.92852],[4.48457,51.92689],[4.48242,51.92597],[4.48268,51.92571],[4.48375,51.92546],[4.48515,51.92524],[4.4852,51.925],[4.48643,51.92481],[4.48622,51.92507],[4.48659,51.92501],[4.48772,51.92472],[4.48902,51.92461],[4.48898,51.92443],[4.49559,51.92387],[4.49644,51.92263],[4.49704,51.92282],[4.49783,51.92301],[4.49779,51.92346],[4.49758,51.9237],[4.49708,51.9244],[4.4972,51.92629],[4.49756,51.92872],[4.49818,51.92936]]]}},{"type":"Feature","id":"1","properties":{"area_m2":657127.5},"geometry":{"type":"Polygon","coordinates":[[[4.48294,51.91822],[4.48847,51.91931],[4.49045,51.92048],[4.49129,51.92087],[4.49644,51.92263],[4.49704,51.92282],[4.49783,51.92301],[4.49779,51.92346],[4.49758,51.9237],[4.49559,51.92387],[4.48898,51.92443],[4.48902,51.92461],[4.48772,51.92472],[4.48659,51.92501],[4.48622,51.92507],[4.48643,51.92481],[4.4852,51.925],[4.48515,51.92524],[4.48375,51.92546],[4.48268,51.92571],[4.48195,51.92548],[4.48017,51.9249],[4.47857,51.92459],[4.47776,51.9244],[4.4795,51.92111],[4.47985,51.92033],[4.48035,51.91899],[4.48095,51.91805],[4.4811,51.91782],[4.48294,51.91822]]]}},{"type":"Feature","id":"71","properties":{"area_m2":524351.8},"geometry":{"type":"Polygon","coordinates":[[[4.4824,51.92921],[4.48048,51.92977],[4.47267,51.93287],[4.4739,51.93379],[4.4749,51.93441],[4.4749,51.93442],[4.4755,51.93479],[4.47667,51.93577],[4.47727,51.93642],[4.47895,51.93753],[4.47988,51.93808],[4.47935,51.94049],[4.47891,51.94039],[4.47942,51.9382],[4.47937,51.93817],[4.47925,51.93809],[4.47708,51.93659],[4.47659,51.93605],[4.47593,51.93547],[4.47593,51.93547],[4.47438,51.93438],[4.4723,51.93302],[4.47116,51.93219],[4.47093,51.93203],[4.46975,51.93117],[4.46975,51.93117],[4.46928,51.93078],[4.47205,51.92916],[4.47415,51.92784],[4.476,51.92659],[4.47687,51.92615],[4.47694,51.92603],[4.47728,51.92535],[4.47776,51.9244],[4.47857,51.92459],[4.48017,51.9249],[4.48195,51.92548],[4.48268,51.92571],[4.48488,51.92659],[4.48457,51.92689],[4.48493,51.92852],[4.48593,51.92987],[4.48522,51.9299],[4.484,51.93007],[4.48372,51.93004],[4.48288,51.92939],[4.4824,51.92921]]]}},{"type":"Feature","id":"Markt","properties":{"area_m2":6844.0},"geometry":{"type":"MultiPolygon","coordinates":[[[[4.49338,51.92341],[4.49167,51.92354],[4.49165,51.92338],[4.49336,51.92323],[4.49338,51.92341]]],[[[4.48342,51.92395],[4.48203,51.92483],[4.4817,51.9246],[4.48309,51.92374],[4.48342,51.92395]]]]}},{"type":"Feature","id":"96","properties":{"area_m2":452233.0},"geometry":{"type":"MultiPolygon","coordinates":[[[[4.52652,51.89534],[4.52836,51.89492],[4.52931,51.89486],[4.53747,51.89584],[4.54451,51.89647],[4.54474,51.8976],[4.54564,51.89847],[4.54637,51.89903],[4.54498,51.90042],[4.53898,51.89853],[4.53432,51.89765],[4.52825,51.89731],[4.52819,51.8971],[4.52803,51.89598],[4.52646,51.89629],[4.52614,51.89562],[4.52662,51.89551],[4.52652,51.89534]]],[[[4.51948,51.89771],[4.51958,51.89783],[4.52083,51.8986],[4.52099,51.89871],[4.51812,51.89949],[4.51644,51.90041],[4.51409,51.90215],[4.51294,51.90175],[4.51533,51.89921],[4.51647,51.89861],[4.51695,51.8984],[4.51765,51.89819],[4.51948,51.89771]]]]}},{"type":"Feature","id":"67","properties":{"area_m2":379860.7},"geometry":{"type":"MultiPolygon","coordinates":[[[[4.50682,51.94392],[4.50624,51.94404],[4.50359,51.94354],[4.50144,51.94281],[4.49975,51.94254],[4.49702,51.94246],[4.49741,51.94146],[4.49722,51.94143],[4.49746,51.94075],[4.49796,51.94041],[4.49806,51.94046],[4.49822,51.94035],[4.49632,51.93949],[4.49747,51.93848],[4.4995,51.93693],[4.50054,51.93762],[4.50107,51.93822],[4.49942,51.93944],[4.49841,51.94014],[4.49972,51.94076],[4.49956,51.94099],[4.50412,51.94314],[4.50682,51.94392]]],[[[4.48926,51.94183],[4.49123,51.94205],[4.49191,51.94202],[4.49354,51.94169],[4.49631,51.93949],[4.49821,51.94035],[4.49806,51.94046],[4.49796,51.9404],[4.49746,51.94075],[4.49721,51.94143],[4.4974,51.94146],[4.49701,51.94246],[4.49975,51.94254],[4.50144,51.94281],[4.50359,51.94354],[4.50623,51.94404],[4.50588,51.94511],[4.49588,51.94402],[4.49523,51.94376],[4.49216,51.94338],[4.48911,51.94225],[4.48926,51.94183]]]]}},{"type":"Feature","id":"32","properties":{"area_m2":731791.9},"geometry":{"type":"MultiPolygon","coordinates":[[[[4.51197,51.90075],[4.51248,51.90123],[4.51248,51.90158],[4.51214,51.90208],[4.51149,51.90283],[4.50729,51.90718],[4.50456,51.9093],[4.49934,51.91288],[4.49747,51.91184],[4.49339,51.90946],[4.49164,51.90871],[4.49781,51.90605],[4.50227,51.90412],[4.50238,51.90395],[4.50289,51.90407],[4.50467,51.90335],[4.50761,51.90232],[4.51167,51.90049],[4.51197,51.90075]]],[[[4.49687,51.90518],[4.49454,51.90615],[4.49406,51.90575],[4.49644,51.90477],[4.49687,51.90518]]]]}},{"type":"Feature","id":"100","properties":{"area_m2":47285365.3},"geometry":{"type":"MultiPolygon","coordinates":[[[[4.53442,51.87744],[4.53916,51.8789],[4.54083,51.87541],[4.54164,51.87423],[4.54307,51.87267],[4.54399,51.87192],[4.54473,51.87245],[4.54586,51.87289],[4.54799,51.87381],[4.54957,51.87442],[4.55115,51.87474],[4.55216,51.87485],[4.55426,51.87548],[4.55605,51.87611],[4.55711,51.87664],[4.55869,51.87736],[4.5608,51.87809],[4.56325,51.87838],[4.56552,51.87824],[4.56307,51.88493],[4.56123,51.88459],[4.55977,51.88457],[4.55381,51.88541],[4.55125,51.88564],[4.55017,51.88565],[4.54765,51.88562],[4.54532,51.8858],[4.54272,51.88608],[4.53692,51.8832],[4.53558,51.8822],[4.53484,51.8816],[4.5336,51.88111],[4.53165,51.88044],[4.53442,51.87744]]],[[[4.53164,51.88045],[4.5336,51.88111],[4.53484,51.8816],[4.53558,51.8822],[4.53692,51.8832],[4.54271,51.88607],[4.54201,51.88737],[4.54271,51.88794],[4.54401,51.88925],[4.5456,51.89267],[4.54563,51.89317],[4.54535,51.89466],[4.54579,51.89541],[4.54452,51.89647],[4.53747,51.89583],[4.5293,51.89485],[4.52825,51.89453],[4.52817,51.89426],[4.52791,51.89406],[4.52171,51.892],[4.52537,51.88731],[4.53164,51.88045]]],[[[4.56307,51.88494],[4.5612,51.88977],[4.56056,51.89099],[4.55875,51.89277],[4.55586,51.89436],[4.55215,51.89551],[4.55179,51.89608],[4.55028,51.89626],[4.54817,51.89615],[4.54579,51.89541],[4.54536,51.89466],[4.54564,51.89317],[4.5456,51.89267],[4.5453,51.89198],[4.54401,51.88925],[4.54272,51.88794],[4.54201,51.88737],[4.54272,51.88608],[4.54532,51.8858],[4.54765,51.88563],[4.55017,51.88565],[4.55125,51.88564],[4.55381,51.88541],[4.55977,51.88457],[4.56123,51.88459],[4.56307,51.88494]]],[[[4.52819,51.8971],[4.52656,51.89724],[4.5228,51.89809],[4.52083,51.8986],[4.52099,51.89871],[4.51812,51.89949],[4.51644,51.90041],[4.5141,51.90214],[4.51295,51.90174],[4.51533,51.89921],[4.51647,51.89861],[4.51695,51.8984],[4.51765,51.89819],[4.51948,51.89771],[4.51897,51.89711],[4.51821,51.8961],[4.52005,51.89395],[4.52138,51.89439],[4.52128,51.8945],[4.52247,51.89489],[4.52127,51.89631],[4.52642,51.8952],[4.52652,51.89534],[4.52836,51.89492],[4.52931,51.89486],[4.53747,51.89584],[4.54451,51.89647],[4.54474,51.8976],[4.54564,51.89847],[4.54637,51.89903],[4.54498,51.90042],[4.53898,51.89853],[4.53432,51.89765],[4.52825,51.89731],[4.52819,51.8971]]],[[[4.44213,51.90616],[4.44107,51.90649],[4.4354,51.91031],[4.4347,51.91103],[4.43412,51.91074],[4.44156,51.90581],[4.44213,51.90616]]],[[[4.51214,51.90208],[4.51149,51.90283],[4.50729,51.90718],[4.50758,51.90731],[4.50959,51.90544],[4.5097,51.90562],[4.50987,51.90561],[4.50976,51.9053],[4.51158,51.90336],[4.51188,51.90298],[4.51184,51.90297],[4.51194,51.90285],[4.51199,51.90286],[4.51294,51.90175],[4.51409,51.90215],[4.5143,51.90365],[4.5141,51.90585],[4.51424,51.90811],[4.51419,51.90894],[4.51371,51.91071],[4.51312,51.91153],[4.51215,51.91256],[4.51033,51.91386],[4.50845,51.91485],[4.5074,51.91519],[4.50609,51.91553],[4.50421,51.91542],[4.49934,51.91288],[4.49747,51.91184],[4.49339,51.90946],[4.49164,51.90871],[4.49781,51.90605],[4.49687,51.90518],[4.49454,51.90615],[4.49406,51.90575],[4.49644,51.90477],[4.4964,51.90378],[4.49411,51.90363],[4.48859,51.90259],[4.48059,51.90285],[4.47315,51.89986],[4.47529,51.8991],[4.47655,51.89745],[4.47665,51.89728],[4.49572,51.90096],[4.49529,51.89815],[4.48594,51.89614],[4.48587,51.89626],[4.47652,51.89417],[4.47691,51.89336],[4.47546,51.89338],[4.47409,51.89356],[4.47114,51.89478],[4.46927,51.89574],[4.47012,51.8972],[4.46899,51.89768],[4.4677,51.89763],[4.46749,51.89819],[4.46688,51.8984],[4.4649,51.89805],[4.46172,51.8977],[4.46169,51.89576],[4.46069,51.89576],[4.46087,51.89829],[4.44851,51.89859],[4.43803,51.90013],[4.43601,51.89955],[4.44764,51.88087],[4.45491,51.87983],[4.45383,51.87801],[4.4537,51.87698],[4.45411,51.87415],[4.45374,51.87331],[4.45598,51.87288],[4.45676,51.8726],[4.45568,51.87149],[4.4551,51.87087],[4.4547,51.87051],[4.45499,51.8698],[4.45483,51.86968],[4.45542,51.86901],[4.45602,51.86901],[4.4573,51.86826],[4.45766,51.86788],[4.45864,51.86724],[4.45996,51.8663],[4.46164,51.86541],[4.46253,51.86521],[4.46278,51.86534],[4.46416,51.86538],[4.46456,51.86537],[4.46494,51.86527],[4.46622,51.86522],[4.4682,51.86521],[4.46927,51.86528],[4.47239,51.86502],[4.47535,51.86494],[4.4764,51.86759],[4.47743,51.87144],[4.47806,51.87415],[4.47896,51.87749],[4.47983,51.88031],[4.47643,51.88122],[4.47179,51.88166],[4.47045,51.88218],[4.47103,51.88319],[4.47529,51.88302],[4.47547,51.88515],[4.47587,51.88522],[4.48,51.88563],[4.47985,51.88608],[4.48179,51.88629],[4.48226,51.88628],[4.48691,51.88522],[4.48813,51.88482],[4.48856,51.88478],[4.48986,51.8848],[4.49096,51.88495],[4.4914,51.88509],[4.49203,51.88543],[4.49253,51.88505],[4.4933,51.88464],[4.49389,51.88439],[4.49621,51.88367],[4.49769,51.88315],[4.49879,51.88256],[4.50413,51.87864],[4.50599,51.87765],[4.51084,51.87542],[4.51449,51.87181],[4.51508,51.87065],[4.5153,51.86945],[4.51529,51.8692],[4.51952,51.8692],[4.52284,51.86908],[4.52555,51.86971],[4.52637,51.87001],[4.52709,51.8694],[4.52772,51.86925],[4.53008,51.86894],[4.53168,51.86885],[4.5321,51.86884],[4.53275,51.86895],[4.5346,51.86933],[4.53534,51.86952],[4.53408,51.86998],[4.53221,51.87053],[4.5293,51.8716],[4.53016,51.87193],[4.53131,51.87275],[4.53217,51.87362],[4.53251,51.87421],[4.53281,51.87494],[4.53293,51.8757],[4.53292,51.87624],[4.53251,51.87773],[4.53087,51.87992],[4.5248,51.88666],[4.52249,51.88659],[4.52221,51.88813],[4.52246,51.88877],[4.52241,51.88905],[4.52035,51.89144],[4.51742,51.89491],[4.51525,51.89782],[4.51463,51.89856],[4.5138,51.89903],[4.51302,51.89931],[4.51231,51.89948],[4.51104,51.89971],[4.51062,51.89927],[4.51008,51.89943],[4.51167,51.90049],[4.51197,51.90075],[4.51248,51.90123],[4.51248,51.90158],[4.51214,51.90208]]],[[[4.53292,51.91888],[4.53284,51.91913],[4.53251,51.91931],[4.5322,51.91935],[4.53095,51.9191],[4.53004,51.91911],[4.52994,51.91894],[4.5311,51.91892],[4.53074,51.91829],[4.53049,51.91748],[4.53048,51.91609],[4.53024,51.91549],[4.5292,51.9157],[4.52911,51.91554],[4.53004,51.91534],[4.53087,51.91509],[4.53137,51.91503],[4.53181,51.91508],[4.53213,51.91518],[4.53246,51.9154],[4.5326,51.91565],[4.53264,51.91592],[4.53258,51.91732],[4.53264,51.9179],[4.53292,51.91888]]],[[[4.42687,51.91327],[4.4292,51.9132],[4.43037,51.91323],[4.42856,51.91448],[4.42671,51.91559],[4.42549,51.91653],[4.42266,51.92031],[4.41728,51.91998],[4.41574,51.91458],[4.41533,51.91461],[4.41524,51.91392],[4.41608,51.91384],[4.42687,51.91327]]],[[[4.46285,51.92237],[4.46273,51.92278],[4.46253,51.92344],[4.46004,51.92321],[4.45478,51.92302],[4.44938,51.92308],[4.44132,51.92241],[4.44053,51.92237],[4.44071,51.92165],[4.43743,51.92171],[4.43623,51.9216],[4.43212,51.92059],[4.42936,51.92069],[4.42537,51.92095],[4.425,51.92083],[4.42466,51.92065],[4.42445,51.9204],[4.4244,51.92018],[4.42446,51.91998],[4.4246,51.91976],[4.42515,51.91921],[4.42627,51.91783],[4.42702,51.91718],[4.42689,51.91686],[4.42756,51.91624],[4.42806,51.91633],[4.43115,51.91393],[4.44243,51.9063],[4.44157,51.9058],[4.43982,51.90532],[4.43802,51.90457],[4.43818,51.90421],[4.43756,51.90389],[4.43765,51.9037],[4.44067,51.9032],[4.44735,51.9019],[4.44791,51.90354],[4.44876,51.90343],[4.44787,51.90183],[4.44921,51.90164],[4.45275,51.90236],[4.45263,51.90266],[4.45242,51.90302],[4.45257,51.90353],[4.45552,51.90402],[4.45698,51.90436],[4.45799,51.90467],[4.45876,51.90244],[4.45395,51.90147],[4.45406,51.90075],[4.45939,51.9007],[4.46254,51.90097],[4.46702,51.9016],[4.46388,51.90673],[4.46597,51.90804],[4.46452,51.91034],[4.4643,51.91058],[4.46366,51.91171],[4.46351,51.91221],[4.46377,51.91302],[4.46374,51.91357],[4.46344,51.91453],[4.46296,51.91558],[4.46279,51.91629],[4.46282,51.91691],[4.46311,51.91844],[4.46335,51.92008],[4.46323,51.92084],[4.46285,51.92237]]],[[[4.48739,51.94101],[4.4865,51.94078],[4.48215,51.9409],[4.4798,51.9407],[4.47935,51.94049],[4.47986,51.94105],[4.47926,51.94139],[4.46752,51.93999],[4.4642,51.93933],[4.46245,51.93836],[4.4525,51.93531],[4.44733,51.93453],[4.44072,51.93079],[4.44158,51.93031],[4.44312,51.93002],[4.44629,51.92976],[4.44928,51.92923],[4.45093,51.92903],[4.45212,51.92896],[4.45288,51.92896],[4.45382,51.92906],[4.45448,51.9292],[4.45459,51.92904],[4.45487,51.92854],[4.45408,51.92573],[4.45461,51.92405],[4.45882,51.92456],[4.45911,51.92469],[4.46165,51.92479],[4.4622,51.92456],[4.46868,51.92581],[4.46984,51.92629],[4.47212,51.92662],[4.47334,51.92615],[4.47687,51.92615],[4.47694,51.92603],[4.47776,51.9244],[4.47857,51.92459],[4.48017,51.9249],[4.48195,51.92548],[4.48268,51.92571],[4.48375,51.92546],[4.48515,51.92524],[4.4852,51.925],[4.48643,51.92481],[4.48622,51.92507],[4.48659,51.92501],[4.48772,51.92472],[4.48902,51.92461],[4.48898,51.92443],[4.49559,51.92387],[4.49644,51.92263],[4.49704,51.92282],[4.49727,51.92239],[4.49748,51.92201],[4.49819,51.92221],[4.49951,51.92086],[4.49962,51.92043],[4.49974,51.91938],[4.5004,51.91945],[4.50183,51.91954],[4.50367,51.9193],[4.50373,51.91949],[4.50546,51.91896],[4.50864,51.91828],[4.51139,51.91731],[4.51382,51.91618],[4.51479,51.91552],[4.51734,51.91614],[4.51831,51.91672],[4.51953,51.91823],[4.52112,51.92048],[4.52962,51.91936],[4.53338,51.92555],[4.53437,51.92752],[4.52958,51.92675],[4.52936,51.92745],[4.52834,51.92735],[4.53028,51.92998],[4.52818,51.9346],[4.52809,51.93812],[4.52706,51.93948],[4.52636,51.9406],[4.52603,51.94156],[4.52551,51.94278],[4.52443,51.94359],[4.52131,51.94503],[4.51894,51.94542],[4.51496,51.94551],[4.50843,51.9438],[4.50478,51.94202],[4.50265,51.93932],[4.50171,51.93802],[4.502,51.93755],[4.50473,51.93632],[4.50484,51.93649],[4.50226,51.93768],[4.50212,51.9381],[4.50534,51.94181],[4.50871,51.94351],[4.51488,51.94506],[4.5189,51.94511],[4.5211,51.94478],[4.52397,51.9435],[4.52487,51.94274],[4.52599,51.94062],[4.52518,51.94043],[4.52534,51.94011],[4.52626,51.94009],[4.52652,51.93971],[4.52653,51.93944],[4.52543,51.93913],[4.52393,51.93916],[4.5246,51.93811],[4.52542,51.93841],[4.52661,51.93931],[4.52692,51.93918],[4.52764,51.93809],[4.52775,51.93463],[4.52965,51.93012],[4.52739,51.92658],[4.52695,51.92636],[4.52107,51.92733],[4.51894,51.9276],[4.52254,51.93286],[4.52165,51.93307],[4.51818,51.9277],[4.51432,51.92962],[4.51031,51.9315],[4.50478,51.93344],[4.50614,51.93498],[4.50574,51.93509],[4.50658,51.93646],[4.50668,51.93697],[4.50522,51.93704],[4.50405,51.9353],[4.50329,51.93393],[4.50248,51.93361],[4.49915,51.93633],[4.49575,51.93922],[4.49284,51.93784],[4.49259,51.93803],[4.4923,51.93788],[4.49258,51.93763],[4.4912,51.93694],[4.49028,51.93583],[4.48955,51.93602],[4.4885,51.93649],[4.48765,51.93769],[4.48695,51.9388],[4.48677,51.9392],[4.48684,51.93946],[4.48723,51.93978],[4.48779,51.94021],[4.48838,51.94053],[4.48833,51.94114],[4.48739,51.94101]]],[[[4.55203,51.95044],[4.55211,51.9504],[4.55245,51.95042],[4.55253,51.95022],[4.55321,51.94936],[4.55359,51.94848],[4.55369,51.94778],[4.55539,51.94399],[4.55587,51.94423],[4.55675,51.94392],[4.55768,51.94495],[4.55804,51.94481],[4.55917,51.94604],[4.55968,51.94649],[4.56031,51.94717],[4.55951,51.94744],[4.55918,51.94789],[4.56032,51.94806],[4.56115,51.94779],[4.56487,51.94828],[4.56433,51.9496],[4.5638,51.94954],[4.56337,51.9505],[4.56391,51.9506],[4.56383,51.95071],[4.56322,51.95085],[4.56014,51.95043],[4.55542,51.94972],[4.55482,51.95115],[4.55512,51.95116],[4.55498,51.95182],[4.55202,51.95158],[4.55168,51.95178],[4.5511,51.9531],[4.55089,51.95309],[4.55147,51.9517],[4.55203,51.95044]]],[[[4.49595,51.91548],[4.4951,51.91492],[4.48985,51.91179],[4.48911,51.91124],[4.48863,51.91082],[4.48797,51.91001],[4.48798,51.90986],[4.489,51.90943],[4.48918,51.90943],[4.49255,51.9107],[4.49986,51.91469],[4.50296,51.91646],[4.50244,51.91682],[4.49928,51.91659],[4.49798,51.91629],[4.49738,51.91625],[4.49672,51.91594],[4.49657,51.91573],[4.49595,51.91548]]],[[[4.55473,51.92061],[4.55938,51.92205],[4.55898,51.92365],[4.55866,51.92352],[4.55857,51.92377],[4.55529,51.92215],[4.55473,51.92061]]],[[[4.48836,51.95545],[4.48533,51.94858],[4.4756,51.94954],[4.4754,51.94901],[4.47513,51.94905],[4.47485,51.94932],[4.4716,51.94986],[4.47165,51.94961],[4.47249,51.9494],[4.47224,51.94887],[4.47108,51.94866],[4.47134,51.94816],[4.47174,51.94793],[4.47271,51.94607],[4.47294,51.94598],[4.47247,51.94596],[4.46633,51.94659],[4.4654,51.94656],[4.46453,51.94677],[4.46062,51.94681],[4.46072,51.94472],[4.46596,51.94474],[4.46879,51.94397],[4.46955,51.94079],[4.47684,51.94171],[4.4856,51.94289],[4.48737,51.9415],[4.48926,51.94183],[4.49123,51.94205],[4.49191,51.94202],[4.49354,51.94169],[4.49631,51.93949],[4.49821,51.94035],[4.49841,51.94014],[4.49972,51.94076],[4.49956,51.94099],[4.50412,51.94314],[4.50682,51.94392],[4.50623,51.94404],[4.50588,51.94511],[4.49588,51.94402],[4.49523,51.94376],[4.49216,51.94338],[4.48911,51.94225],[4.4884,51.94408],[4.49189,51.94535],[4.49554,51.94543],[4.49582,51.94558],[4.49625,51.94563],[4.4963,51.94584],[4.49615,51.94587],[4.49479,51.94606],[4.49283,51.94615],[4.49073,51.94584],[4.48723,51.94746],[4.49443,51.95272],[4.49256,51.95359],[4.49381,51.95503],[4.49549,51.95415],[4.49566,51.9543],[4.49396,51.95514],[4.4944,51.95547],[4.4948,51.95555],[4.4964,51.95653],[4.49783,51.95699],[4.49719,51.95738],[4.49502,51.95849],[4.49298,51.95948],[4.49262,51.95914],[4.493,51.95898],[4.49233,51.95843],[4.49251,51.95835],[4.49342,51.95909],[4.4945,51.95853],[4.49427,51.95748],[4.49424,51.95582],[4.49272,51.95438],[4.49237,51.95417],[4.48895,51.95592],[4.48836,51.95545]]],[[[4.52523,51.90952],[4.52581,51.9102],[4.52611,51.91087],[4.52787,51.91386],[4.52153,51.91562],[4.51991,51.91583],[4.51638,51.9157],[4.51516,51.91519],[4.51657,51.91387],[4.51778,51.91206],[4.51815,51.91052],[4.51894,51.90574],[4.52191,51.90579],[4.52703,51.90582],[4.52758,51.90643],[4.52723,51.90719],[4.52523,51.90952]]],[[[4.5153,51.86945],[4.51508,51.87065],[4.51448,51.87181],[4.51084,51.87542],[4.50599,51.87765],[4.50413,51.87864],[4.49879,51.88256],[4.49407,51.8799],[4.49284,51.88008],[4.49163,51.87962],[4.49089,51.87901],[4.48863,51.87863],[4.48893,51.87742],[4.48804,51.87729],[4.48617,51.87933],[4.48657,51.88157],[4.48444,51.88222],[4.48265,51.88325],[4.48147,51.8825],[4.48056,51.88153],[4.47983,51.88031],[4.47896,51.87749],[4.47806,51.87415],[4.47743,51.87144],[4.47642,51.86758],[4.47535,51.86494],[4.47562,51.86506],[4.47605,51.86512],[4.47783,51.86511],[4.47924,51.86523],[4.4799,51.86538],[4.48026,51.86546],[4.48079,51.86547],[4.48087,51.86551],[4.48152,51.86562],[4.48331,51.86602],[4.48426,51.86611],[4.48575,51.8666],[4.4871,51.86713],[4.48876,51.86727],[4.48973,51.86766],[4.49341,51.86878],[4.49453,51.8688],[4.49446,51.86953],[4.49518,51.86958],[4.49577,51.86923],[4.50207,51.86925],[4.50207,51.86953],[4.5153,51.86945]]],[[[4.49942,51.93944],[4.49841,51.94014],[4.49821,51.94035],[4.49631,51.93949],[4.49747,51.93848],[4.4995,51.93693],[4.50054,51.93762],[4.50107,51.93822],[4.49942,51.93944]]],[[[4.54397,51.87185],[4.54303,51.87266],[4.5416,51.87423],[4.5408,51.87541],[4.53915,51.87889],[4.53442,51.87744],[4.53279,51.87705],[4.53305,51.87609],[4.53294,51.87508],[4.53245,51.87387],[4.53146,51.87279],[4.53059,51.8721],[4.5295,51.8716],[4.52956,51.87153],[4.53257,51.87044],[4.53387,51.87006],[4.53549,51.86949],[4.53643,51.86972],[4.53753,51.86986],[4.53865,51.86993],[4.54001,51.87017],[4.54257,51.87084],[4.54303,51.87117],[4.54346,51.87135],[4.54397,51.87185]]],[[[4.53494,51.93746],[4.53102,51.93688],[4.53122,51.93644],[4.5351,51.93708],[4.53494,51.93746]]],[[[4.51895,51.90573],[4.52394,51.90167],[4.52844,51.90099],[4.54162,51.90519],[4.53502,51.91379],[4.53381,51.91397],[4.5318,51.91356],[4.52788,51.91385],[4.52612,51.91087],[4.52582,51.9102],[4.52524,51.90951],[4.52724,51.90718],[4.52759,51.90643],[4.52704,51.90582],[4.52192,51.90579],[4.51895,51.90573]]],[[[4.48016,51.86508],[4.4799,51.86538],[4.47924,51.86523],[4.47783,51.86511],[4.47605,51.86512],[4.47562,51.86506],[4.47535,51.86494],[4.47239,51.86502],[4.46927,51.86528],[4.4682,51.86521],[4.46622,51.86522],[4.46494,51.86527],[4.46456,51.86537],[4.46416,51.86538],[4.46278,51.86534],[4.46253,51.86521],[4.46164,51.86541],[4.45996,51.8663],[4.45864,51.86724],[4.45766,51.86788],[4.4573,51.86826],[4.45602,51.86901],[4.45542,51.86901],[4.45483,51.86968],[4.45499,51.8698],[4.4547,51.87051],[4.4551,51.87087],[4.45568,51.87149],[4.45289,51.87126],[4.45077,51.87053],[4.45111,51.86911],[4.44862,51.86882],[4.44729,51.86847],[4.44677,51.86763],[4.45016,51.86619],[4.45887,51.86396],[4.46239,51.8631],[4.46552,51.86267],[4.46834,51.86244],[4.47428,51.86259],[4.48017,51.86321],[4.48016,51.86508]]],[[[4.53405,51.92524],[4.53247,51.92266],[4.53361,51.9223],[4.53474,51.9221],[4.53527,51.92205],[4.53703,51.925],[4.53405,51.92524]]],[[[4.41753,51.90148],[4.42047,51.90196],[4.42486,51.9024],[4.43578,51.90255],[4.43615,51.90375],[4.438,51.90458],[4.43981,51.90533],[4.44113,51.90569],[4.43402,51.91036],[4.43366,51.91065],[4.43281,51.91218],[4.4324,51.91244],[4.43185,51.91255],[4.43053,51.91247],[4.43032,51.91311],[4.42694,51.91325],[4.41351,51.91395],[4.4135,51.91391],[4.41278,51.91392],[4.41269,51.91389],[4.41267,51.91388],[4.41254,51.91373],[4.41253,51.9137],[4.41239,51.9133],[4.41224,51.91327],[4.41222,51.91325],[4.41205,51.91314],[4.40908,51.91205],[4.40954,51.91041],[4.41,51.90985],[4.41135,51.91027],[4.41345,51.90768],[4.4133,51.90728],[4.41362,51.90688],[4.41568,51.90502],[4.41234,51.90242],[4.41371,51.90075],[4.41753,51.90148]]]]}},{"type":"Feature","id":"97","properties":{"area_m2":8390493.9},"geometry":{"type":"MultiPolygon","coordinates":[[[[4.4876,51.89586],[4.49011,51.89621],[4.49493,51.89727],[4.49776,51.89782],[4.49982,51.89814],[4.50174,51.89825],[4.50473,51.89833],[4.50656,51.89843],[4.50809,51.89869],[4.50905,51.89894],[4.51008,51.89943],[4.51167,51.90049],[4.51197,51.90075],[4.51248,51.90123],[4.51248,51.90158],[4.51214,51.90208],[4.51149,51.90283],[4.50729,51.90718],[4.50456,51.9093],[4.50289,51.91045],[4.5024,51.91018],[4.50068,51.91146],[4.50013,51.9113],[4.49812,51.91139],[4.49801,51.91153],[4.49984,51.91254],[4.49934,51.91288],[4.49747,51.91184],[4.49339,51.90946],[4.49164,51.90871],[4.49781,51.90605],[4.49687,51.90518],[4.49454,51.90615],[4.49406,51.90575],[4.49644,51.90477],[4.4964,51.90378],[4.49411,51.90363],[4.48859,51.90259],[4.48059,51.90285],[4.47315,51.89986],[4.47529,51.8991],[4.47655,51.89745],[4.48577,51.89939],[4.49587,51.90148],[4.49572,51.90096],[4.49529,51.89815],[4.48594,51.89614],[4.48587,51.89626],[4.47652,51.89417],[4.47691,51.89336],[4.48494,51.8951],[4.48659,51.89568],[4.4876,51.89586]],[[4.50486,51.90622],[4.5053,51.90606],[4.50324,51.90422],[4.50283,51.9044],[4.50486,51.90622]],[[4.49693,51.90167],[4.49726,51.90175],[4.49915,51.90045],[4.50129,51.90161],[4.50154,51.90144],[4.49655,51.8988],[4.49638,51.89893],[4.49693,51.90167]]],[[[4.50648,51.92158],[4.50608,51.92085],[4.50588,51.92088],[4.50485,51.91971],[4.49951,51.92086],[4.49962,51.92043],[4.49974,51.91938],[4.5004,51.91945],[4.50183,51.91954],[4.50367,51.9193],[4.50373,51.91949],[4.50546,51.91896],[4.50864,51.91828],[4.51139,51.91731],[4.51382,51.91618],[4.51479,51.91552],[4.51734,51.91614],[4.51831,51.91672],[4.518,51.91706],[4.51539,51.91924],[4.51494,51.91956],[4.51401,51.91983],[4.50648,51.92158]]],[[[4.46366,51.91171],[4.46323,51.9116],[4.46306,51.91185],[4.46348,51.91306],[4.46339,51.9136],[4.46103,51.91323],[4.45597,51.91234],[4.4559,51.91251],[4.46015,51.91327],[4.45996,51.91423],[4.45629,51.91375],[4.45556,51.9137],[4.45549,51.91396],[4.46294,51.915],[4.46262,51.91572],[4.46247,51.91628],[4.46252,51.91696],[4.46283,51.91881],[4.46031,51.91842],[4.45782,51.91777],[4.45657,51.91748],[4.45399,51.917],[4.45315,51.91677],[4.45198,51.91649],[4.45035,51.91632],[4.44588,51.91649],[4.44486,51.91664],[4.44463,51.91693],[4.44542,51.91794],[4.4465,51.91675],[4.45028,51.91659],[4.45168,51.91671],[4.45299,51.91702],[4.45356,51.91726],[4.45524,51.91752],[4.4572,51.91788],[4.46001,51.91863],[4.46132,51.91888],[4.46288,51.91912],[4.46299,51.91994],[4.46285,51.92134],[4.46255,51.92233],[4.46285,51.92237],[4.46273,51.92278],[4.46253,51.92344],[4.46004,51.92321],[4.45478,51.92302],[4.44938,51.92308],[4.44132,51.92241],[4.44053,51.92237],[4.44071,51.92165],[4.43743,51.92171],[4.43807,51.92121],[4.44004,51.92005],[4.4434,51.91736],[4.44444,51.91599],[4.44654,51.91301],[4.44767,51.91167],[4.44924,51.90997],[4.44857,51.90924],[4.44824,51.90493],[4.44894,51.90374],[4.44936,51.90364],[4.45047,51.90348],[4.45164,51.90342],[4.45257,51.90353],[4.45552,51.90402],[4.45698,51.90436],[4.45799,51.90467],[4.45876,51.90244],[4.45395,51.90147],[4.45406,51.90075],[4.45939,51.9007],[4.46254,51.90097],[4.46702,51.9016],[4.47409,51.9037],[4.47956,51.90625],[4.47848,51.90817],[4.47878,51.90848],[4.4785,51.90908],[4.47777,51.90966],[4.4769,51.91013],[4.47622,51.91113],[4.47161,51.90968],[4.46714,51.90834],[4.46597,51.90804],[4.46452,51.91034],[4.4643,51.91058],[4.46366,51.91171]]],[[[4.49595,51.91548],[4.4951,51.91492],[4.48985,51.91179],[4.48911,51.91124],[4.48863,51.91082],[4.48797,51.91001],[4.48798,51.90986],[4.489,51.90943],[4.48918,51.90943],[4.49255,51.9107],[4.49986,51.91469],[4.50296,51.91646],[4.50244,51.91682],[4.49928,51.91659],[4.49798,51.91629],[4.49738,51.91625],[4.49672,51.91594],[4.49657,51.91573],[4.49595,51.91548]],[[4.49646,51.91535],[4.49714,51.9157],[4.49874,51.91617],[4.50027,51.91637],[4.50075,51.91652],[4.50196,51.91659],[4.50223,51.9164],[4.50118,51.91579],[4.50083,51.91575],[4.49929,51.91485],[4.49757,51.91396],[4.49659,51.91337],[4.49239,51.91099],[4.48945,51.90986],[4.48856,51.91016],[4.48935,51.91096],[4.49068,51.91184],[4.49646,51.91535]]],[[[4.44696,51.90372],[4.44548,51.90393],[4.44499,51.90272],[4.44317,51.903],[4.44378,51.90456],[4.44323,51.90464],[4.44263,51.90305],[4.44671,51.90245],[4.44683,51.90272],[4.4466,51.90277],[4.44696,51.90372]]],[[[4.52061,51.9147],[4.52044,51.91463],[4.52066,51.91436],[4.52029,51.91362],[4.5186,51.91097],[4.51928,51.90693],[4.52166,51.90661],[4.52183,51.90707],[4.52162,51.90713],[4.5202,51.90737],[4.51979,51.90961],[4.52008,51.90969],[4.51999,51.90987],[4.52001,51.91022],[4.51985,51.91036],[4.51926,51.91117],[4.52047,51.91152],[4.52044,51.91159],[4.5199,51.91172],[4.52069,51.91299],[4.52016,51.91311],[4.52074,51.91405],[4.52069,51.91406],[4.52088,51.91437],[4.52061,51.9147]]],[[[4.52819,51.8971],[4.52893,51.89706],[4.52872,51.89572],[4.52903,51.89569],[4.52903,51.89566],[4.53006,51.89559],[4.53,51.89526],[4.53035,51.89531],[4.53071,51.89732],[4.52934,51.89725],[4.52825,51.89731],[4.52819,51.8971]]],[[[4.45491,51.87983],[4.45787,51.88493],[4.45866,51.88479],[4.45813,51.88543],[4.46077,51.89008],[4.46283,51.8932],[4.46196,51.89335],[4.46226,51.89367],[4.46317,51.89418],[4.46245,51.89478],[4.46168,51.8949],[4.46169,51.89576],[4.46069,51.89576],[4.46087,51.89829],[4.44851,51.89859],[4.43803,51.90013],[4.43601,51.89955],[4.44764,51.88087],[4.45491,51.87983]]]]}},{"type":"Feature","id":"68","properties":{"area_m2":379860.7},"geometry":{"type":"MultiPolygon","coordinates":[[[[4.48926,51.94183],[4.49123,51.94205],[4.49191,51.94202],[4.49354,51.94169],[4.49631,51.93949],[4.49821,51.94035],[4.49806,51.94046],[4.49796,51.9404],[4.49746,51.94075],[4.49721,51.94143],[4.4974,51.94146],[4.49701,51.94246],[4.49975,51.94254],[4.50144,51.94281],[4.50359,51.94354],[4.50623,51.94404],[4.50588,51.94511],[4.49588,51.94402],[4.49523,51.94376],[4.49216,51.94338],[4.48911,51.94225],[4.48926,51.94183]]],[[[4.50682,51.94392],[4.50624,51.94404],[4.50359,51.94354],[4.50144,51.94281],[4.49975,51.94254],[4.49702,51.94246],[4.49741,51.94146],[4.49722,51.94143],[4.49746,51.94075],[4.49796,51.94041],[4.49806,51.94046],[4.49822,51.94035],[4.49632,51.93949],[4.49747,51.93848],[4.4995,51.93693],[4.50054,51.93762],[4.50107,51.93822],[4.49942,51.93944],[4.49841,51.94014],[4.49972,51.94076],[4.49956,51.94099],[4.50412,51.94314],[4.50682,51.94392]]]]}},{"type":"Feature","id":"63","properties":{"area_m2":2684388.1},"geometry":{"type":"MultiPolygon","coordinates":[[[[4.52958,51.92675],[4.52936,51.92745],[4.52834,51.92735],[4.53028,51.92998],[4.52818,51.9346],[4.52809,51.93812],[4.52706,51.93948],[4.52636,51.9406],[4.52603,51.94156],[4.52551,51.94278],[4.52443,51.94359],[4.52131,51.94503],[4.51894,51.94542],[4.51496,51.94551],[4.50843,51.9438],[4.50478,51.94202],[4.50265,51.93932],[4.50171,51.93802],[4.502,51.93755],[4.50473,51.93632],[4.50484,51.93649],[4.50226,51.93768],[4.50212,51.9381],[4.50534,51.94181],[4.50871,51.94351],[4.51488,51.94506],[4.5189,51.94511],[4.5211,51.94478],[4.52397,51.9435],[4.52487,51.94274],[4.52599,51.94062],[4.52518,51.94043],[4.52534,51.94011],[4.52626,51.94009],[4.52652,51.93971],[4.52653,51.93944],[4.52543,51.93913],[4.52393,51.93916],[4.5246,51.93811],[4.52542,51.93841],[4.52661,51.93931],[4.52692,51.93918],[4.52764,51.93809],[4.52775,51.93463],[4.52965,51.93012],[4.52739,51.92658],[4.52695,51.92636],[4.52107,51.92733],[4.51894,51.9276],[4.52254,51.93286],[4.52165,51.93307],[4.51818,51.9277],[4.51432,51.92962],[4.51031,51.9315],[4.50478,51.93344],[4.50614,51.93498],[4.50574,51.93509],[4.50658,51.93646],[4.50668,51.93697],[4.50522,51.93704],[4.50405,51.9353],[4.50329,51.93393],[4.50248,51.93361],[4.50151,51.9326],[4.50053,51.93224],[4.49863,51.92982],[4.49818,51.92936],[4.49756,51.92872],[4.4972,51.92629],[4.49708,51.9244],[4.49758,51.9237],[4.49559,51.92387],[4.49644,51.92263],[4.49704,51.92282],[4.49783,51.92301],[4.49833,51.92311],[4.4993,51.92303],[4.50104,51.92275],[4.50346,51.92226],[4.50648,51.92158],[4.51401,51.91983],[4.51412,51.91991],[4.51492,51.91964],[4.51785,51.91728],[4.51855,51.91702],[4.51953,51.91823],[4.52112,51.92048],[4.52962,51.91936],[4.53338,51.92555],[4.53437,51.92752],[4.52958,51.92675]]],[[[4.53494,51.93746],[4.53102,51.93688],[4.53122,51.93644],[4.5351,51.93708],[4.53494,51.93746]]]]}},{"type":"Feature","id":"99","properties":{"area_m2":51518313.9},"geometry":{"type":"MultiPolygon","coordinates":[[[[4.48215,51.9409],[4.4798,51.9407],[4.47935,51.94049],[4.47986,51.94105],[4.47926,51.94139],[4.46752,51.93999],[4.4642,51.93933],[4.46245,51.93836],[4.4525,51.93531],[4.44733,51.93453],[4.44072,51.93079],[4.44158,51.93031],[4.44312,51.93002],[4.44629,51.92976],[4.44928,51.92923],[4.45093,51.92903],[4.45212,51.92896],[4.45288,51.92896],[4.45382,51.92906],[4.45448,51.9292],[4.45459,51.92904],[4.45487,51.92854],[4.45408,51.92573],[4.45461,51.92405],[4.45882,51.92456],[4.45911,51.92469],[4.46165,51.92479],[4.4622,51.92456],[4.46868,51.92581],[4.46984,51.92629],[4.47212,51.92662],[4.47334,51.92615],[4.47687,51.92615],[4.47694,51.92603],[4.46958,51.92456],[4.46502,51.9237],[4.46253,51.92344],[4.46004,51.92321],[4.45478,51.92302],[4.44938,51.92308],[4.44132,51.92241],[4.44053,51.92237],[4.44071,51.92165],[4.43743,51.92171],[4.43623,51.9216],[4.43212,51.92059],[4.42936,51.92069],[4.42537,51.92095],[4.425,51.92083],[4.42466,51.92065],[4.42445,51.9204],[4.4244,51.92018],[4.42446,51.91998],[4.4246,51.91976],[4.42515,51.91921],[4.42627,51.91783],[4.42702,51.91718],[4.42689,51.91686],[4.42756,51.91624],[4.42806,51.91633],[4.43115,51.91393],[4.44243,51.9063],[4.44157,51.9058],[4.43982,51.90532],[4.43802,51.90457],[4.43818,51.90421],[4.43756,51.90389],[4.43765,51.9037],[4.44067,51.9032],[4.44735,51.9019],[4.44791,51.90354],[4.44876,51.90343],[4.44787,51.90183],[4.44921,51.90164],[4.45275,51.90236],[4.45263,51.90266],[4.45242,51.90302],[4.45257,51.90353],[4.45552,51.90402],[4.45698,51.90436],[4.45799,51.90467],[4.45876,51.90244],[4.45395,51.90147],[4.45406,51.90075],[4.45939,51.9007],[4.46254,51.90097],[4.46702,51.9016],[4.47409,51.9037],[4.47956,51.90625],[4.48326,51.90906],[4.48439,51.91099],[4.48374,51.91148],[4.48334,51.91246],[4.48505,51.9127],[4.49215,51.91755],[4.495,51.91828],[4.49974,51.91938],[4.5004,51.91945],[4.50183,51.91954],[4.50367,51.9193],[4.50373,51.91949],[4.50546,51.91896],[4.50864,51.91828],[4.51139,51.91731],[4.51382,51.91618],[4.51479,51.91552],[4.51734,51.91614],[4.51831,51.91672],[4.51953,51.91823],[4.52112,51.92048],[4.52962,51.91936],[4.53338,51.92555],[4.53437,51.92752],[4.52958,51.92675],[4.52936,51.92745],[4.52834,51.92735],[4.53028,51.92998],[4.52818,51.9346],[4.52809,51.93812],[4.52706,51.93948],[4.52636,51.9406],[4.52603,51.94156],[4.52551,51.94278],[4.52443,51.94359],[4.52131,51.94503],[4.51894,51.94542],[4.51496,51.94551],[4.50843,51.9438],[4.50478,51.94202],[4.50265,51.93932],[4.50171,51.93802],[4.502,51.93755],[4.50473,51.93632],[4.50484,51.93649],[4.50226,51.93768],[4.50212,51.9381],[4.50534,51.94181],[4.50871,51.94351],[4.51488,51.94506],[4.5189,51.94511],[4.5211,51.94478],[4.52397,51.9435],[4.52487,51.94274],[4.52599,51.94062],[4.52518,51.94043],[4.52534,51.94011],[4.52626,51.94009],[4.52652,51.93971],[4.52653,51.93944],[4.52543,51.93913],[4.52393,51.93916],[4.5246,51.93811],[4.52542,51.93841],[4.52661,51.93931],[4.52692,51.93918],[4.52764,51.93809],[4.52775,51.93463],[4.52965,51.93012],[4.52739,51.92658],[4.52695,51.92636],[4.52107,51.92733],[4.51894,51.9276],[4.52254,51.93286],[4.52165,51.93307],[4.51818,51.9277],[4.51432,51.92962],[4.51031,51.9315],[4.50478,51.93344],[4.50614,51.93498],[4.50574,51.93509],[4.50658,51.93646],[4.50668,51.93697],[4.50522,51.93704],[4.50405,51.9353],[4.50329,51.93393],[4.50248,51.93361],[4.49915,51.93633],[4.49575,51.93922],[4.49284,51.93784],[4.49259,51.93803],[4.4923,51.93788],[4.49258,51.93763],[4.4912,51.93694],[4.49028,51.93583],[4.48955,51.93602],[4.4885,51.93649],[4.48765,51.93769],[4.48695,51.9388],[4.48677,51.9392],[4.48684,51.93946],[4.48723,51.93978],[4.48779,51.94021],[4.48838,51.94053],[4.48833,51.94114],[4.48739,51.94101],[4.4865,51.94078],[4.48215,51.9409]]],[[[4.50729,51.90718],[4.50758,51.90731],[4.50959,51.90544],[4.5097,51.90562],[4.50987,51.90561],[4.50976,51.9053],[4.51158,51.90336],[4.51188,51.90298],[4.51184,51.90297],[4.51194,51.90285],[4.51199,51.90286],[4.51294,51.90175],[4.51409,51.90215],[4.5143,51.90365],[4.5141,51.90585],[4.51424,51.90811],[4.51419,51.90894],[4.51371,51.91071],[4.51312,51.91153],[4.51215,51.91256],[4.51033,51.91386],[4.50845,51.91485],[4.5074,51.91519],[4.50609,51.91553],[4.50421,51.91542],[4.49934,51.91288],[4.49747,51.91184],[4.49339,51.90946],[4.49164,51.90871],[4.48819,51.90723],[4.48252,51.90427],[4.4842,51.903],[4.49058,51.90596],[4.49339,51.90603],[4.49644,51.90477],[4.4964,51.90378],[4.49411,51.90363],[4.48859,51.90259],[4.48059,51.90285],[4.47315,51.89986],[4.47529,51.8991],[4.47655,51.89745],[4.47665,51.89728],[4.49572,51.90096],[4.49529,51.89815],[4.48594,51.89614],[4.48587,51.89626],[4.47652,51.89417],[4.47691,51.89336],[4.47546,51.89338],[4.47409,51.89356],[4.47114,51.89478],[4.46927,51.89574],[4.47012,51.8972],[4.46899,51.89768],[4.4677,51.89763],[4.46749,51.89819],[4.46688,51.8984],[4.4649,51.89805],[4.46172,51.8977],[4.46169,51.89576],[4.46069,51.89576],[4.46087,51.89829],[4.44851,51.89859],[4.43803,51.90013],[4.43601,51.89955],[4.44764,51.88087],[4.45491,51.87983],[4.45383,51.87801],[4.4537,51.87698],[4.45411,51.87415],[4.45374,51.87331],[4.45598,51.87288],[4.45676,51.8726],[4.45568,51.87149],[4.4551,51.87087],[4.4547,51.87051],[4.45499,51.8698],[4.45483,51.86968],[4.45542,51.86901],[4.45602,51.86901],[4.4573,51.86826],[4.45766,51.86788],[4.45864,51.86724],[4.45996,51.8663],[4.46164,51.86541],[4.46253,51.86521],[4.46278,51.86534],[4.46416,51.86538],[4.46456,51.86537],[4.46494,51.86527],[4.46622,51.86522],[4.4682,51.86521],[4.46927,51.86528],[4.47239,51.86502],[4.47535,51.86494],[4.4764,51.86759],[4.47743,51.87144],[4.47806,51.87415],[4.47896,51.87749],[4.47983,51.88031],[4.47643,51.88122],[4.47179,51.88166],[4.47045,51.88218],[4.47103,51.88319],[4.47529,51.88302],[4.47547,51.88515],[4.47587,51.88522],[4.48,51.88563],[4.47985,51.88608],[4.48179,51.88629],[4.48226,51.88628],[4.48691,51.88522],[4.48813,51.88482],[4.48856,51.88478],[4.48986,51.8848],[4.49096,51.88495],[4.4914,51.88509],[4.49203,51.88543],[4.49253,51.88505],[4.4933,51.88464],[4.49389,51.88439],[4.49621,51.88367],[4.49769,51.88315],[4.49879,51.88256],[4.50413,51.87864],[4.50599,51.87765],[4.51084,51.87542],[4.51449,51.87181],[4.51508,51.87065],[4.5153,51.86945],[4.51529,51.8692],[4.51952,51.8692],[4.52284,51.86908],[4.52555,51.86971],[4.52637,51.87001],[4.52709,51.8694],[4.52772,51.86925],[4.53008,51.86894],[4.53168,51.86885],[4.5321,51.86884],[4.53275,51.86895],[4.5346,51.86933],[4.53534,51.86952],[4.53408,51.86998],[4.53221,51.87053],[4.5293,51.8716],[4.53016,51.87193],[4.53131,51.87275],[4.53217,51.87362],[4.53251,51.87421],[4.53281,51.87494],[4.53293,51.8757],[4.53292,51.87624],[4.53251,51.87773],[4.53087,51.87992],[4.5248,51.88666],[4.52249,51.88659],[4.52221,51.88813],[4.52246,51.88877],[4.52241,51.88905],[4.52035,51.89144],[4.51742,51.89491],[4.51525,51.89782],[4.51463,51.89856],[4.5138,51.89903],[4.51302,51.89931],[4.51231,51.89948],[4.51104,51.89971],[4.51062,51.89927],[4.51008,51.89943],[4.51167,51.90049],[4.51197,51.90075],[4.51248,51.90123],[4.51248,51.90158],[4.51214,51.90208],[4.51149,51.90283],[4.50729,51.90718]]],[[[4.52523,51.90952],[4.52581,51.9102],[4.52611,51.91087],[4.52787,51.91386],[4.52153,51.91562],[4.51991,51.91583],[4.51638,51.9157],[4.51516,51.91519],[4.51657,51.91387],[4.51778,51.91206],[4.51815,51.91052],[4.51894,51.90574],[4.52191,51.90579],[4.52703,51.90582],[4.52758,51.90643],[4.52723,51.90719],[4.52523,51.90952]]],[[[4.49595,51.91548],[4.4951,51.91492],[4.48985,51.91179],[4.48911,51.91124],[4.48863,51.91082],[4.48797,51.91001],[4.48798,51.90986],[4.489,51.90943],[4.48918,51.90943],[4.49255,51.9107],[4.49986,51.91469],[4.50296,51.91646],[4.50244,51.91682],[4.49928,51.91659],[4.49798,51.91629],[4.49738,51.91625],[4.49672,51.91594],[4.49657,51.91573],[4.49595,51.91548]]],[[[4.42687,51.91327],[4.4292,51.9132],[4.43037,51.91323],[4.42856,51.91448],[4.42671,51.91559],[4.42549,51.91653],[4.42266,51.92031],[4.41728,51.91998],[4.41574,51.91458],[4.41533,51.91461],[4.41524,51.91392],[4.41608,51.91384],[4.42687,51.91327]]],[[[4.44213,51.90616],[4.44107,51.90649],[4.4354,51.91031],[4.4347,51.91103],[4.43412,51.91074],[4.44156,51.90581],[4.44213,51.90616]]],[[[4.5153,51.86945],[4.51508,51.87065],[4.51448,51.87181],[4.51084,51.87542],[4.50599,51.87765],[4.50413,51.87864],[4.49879,51.88256],[4.49407,51.8799],[4.49284,51.88008],[4.49163,51.87962],[4.49089,51.87901],[4.48863,51.87863],[4.48893,51.87742],[4.48804,51.87729],[4.48617,51.87933],[4.48657,51.88157],[4.48444,51.88222],[4.48265,51.88325],[4.48147,51.8825],[4.48056,51.88153],[4.47983,51.88031],[4.47896,51.87749],[4.47806,51.87415],[4.47743,51.87144],[4.47642,51.86758],[4.47535,51.86494],[4.47562,51.86506],[4.47605,51.86512],[4.47783,51.86511],[4.47924,51.86523],[4.4799,51.86538],[4.48026,51.86546],[4.48079,51.86547],[4.48087,51.86551],[4.48152,51.86562],[4.48331,51.86602],[4.48426,51.86611],[4.48575,51.8666],[4.4871,51.86713],[4.48876,51.86727],[4.48973,51.86766],[4.49341,51.86878],[4.49453,51.8688],[4.49446,51.86953],[4.49518,51.86958],[4.49577,51.86923],[4.50207,51.86925],[4.50207,51.86953],[4.5153,51.86945]]],[[[4.53164,51.88045],[4.5336,51.88111],[4.53484,51.8816],[4.53558,51.8822],[4.53692,51.8832],[4.54271,51.88607],[4.54201,51.88737],[4.54271,51.88794],[4.54401,51.88925],[4.5456,51.89267],[4.54563,51.89317],[4.54535,51.89466],[4.54579,51.89541],[4.54452,51.89647],[4.53747,51.89583],[4.5293,51.89485],[4.52825,51.89453],[4.52817,51.89426],[4.52791,51.89406],[4.52171,51.892],[4.52537,51.88731],[4.53164,51.88045]]],[[[4.52819,51.8971],[4.52656,51.89724],[4.5228,51.89809],[4.52083,51.8986],[4.52099,51.89871],[4.51812,51.89949],[4.51644,51.90041],[4.5141,51.90214],[4.51295,51.90174],[4.51533,51.89921],[4.51647,51.89861],[4.51695,51.8984],[4.51765,51.89819],[4.51948,51.89771],[4.51897,51.89711],[4.51821,51.8961],[4.52005,51.89395],[4.52138,51.89439],[4.52128,51.8945],[4.52247,51.89489],[4.52127,51.89631],[4.52642,51.8952],[4.52652,51.89534],[4.52836,51.89492],[4.52931,51.89486],[4.53747,51.89584],[4.54451,51.89647],[4.54474,51.8976],[4.54564,51.89847],[4.54637,51.89903],[4.54498,51.90042],[4.53898,51.89853],[4.53432,51.89765],[4.52825,51.89731],[4.52819,51.8971]]],[[[4.56307,51.88494],[4.5612,51.88977],[4.56056,51.89099],[4.55875,51.89277],[4.55586,51.89436],[4.55215,51.89551],[4.55179,51.89608],[4.55028,51.89626],[4.54817,51.89615],[4.54579,51.89541],[4.54536,51.89466],[4.54564,51.89317],[4.5456,51.89267],[4.5453,51.89198],[4.54401,51.88925],[4.54272,51.88794],[4.54201,51.88737],[4.54272,51.88608],[4.54532,51.8858],[4.54765,51.88563],[4.55017,51.88565],[4.55125,51.88564],[4.55381,51.88541],[4.55977,51.88457],[4.56123,51.88459],[4.56307,51.88494]]],[[[4.53442,51.87744],[4.53916,51.8789],[4.54083,51.87541],[4.54164,51.87423],[4.54307,51.87267],[4.54399,51.87192],[4.54473,51.87245],[4.54586,51.87289],[4.54799,51.87381],[4.54957,51.87442],[4.55115,51.87474],[4.55216,51.87485],[4.55426,51.87548],[4.55605,51.87611],[4.55711,51.87664],[4.55869,51.87736],[4.5608,51.87809],[4.56325,51.87838],[4.56552,51.87824],[4.56307,51.88493],[4.56123,51.88459],[4.55977,51.88457],[4.55381,51.88541],[4.55125,51.88564],[4.55017,51.88565],[4.54765,51.88562],[4.54532,51.8858],[4.54272,51.88608],[4.53692,51.8832],[4.53558,51.8822],[4.53484,51.8816],[4.5336,51.88111],[4.53165,51.88044],[4.53442,51.87744]]],[[[4.53292,51.91888],[4.53284,51.91913],[4.53251,51.91931],[4.5322,51.91935],[4.53095,51.9191],[4.53004,51.91911],[4.52994,51.91894],[4.5311,51.91892],[4.53074,51.91829],[4.53049,51.91748],[4.53048,51.91609],[4.53024,51.91549],[4.5292,51.9157],[4.52911,51.91554],[4.53004,51.91534],[4.53087,51.91509],[4.53137,51.91503],[4.53181,51.91508],[4.53213,51.91518],[4.53246,51.9154],[4.5326,51.91565],[4.53264,51.91592],[4.53258,51.91732],[4.53264,51.9179],[4.53292,51.91888]]],[[[4.55473,51.92061],[4.55938,51.92205],[4.55898,51.92365],[4.55866,51.92352],[4.55857,51.92377],[4.55529,51.92215],[4.55473,51.92061]]],[[[4.55203,51.95044],[4.55211,51.9504],[4.55245,51.95042],[4.55253,51.95022],[4.55321,51.94936],[4.55359,51.94848],[4.55369,51.94778],[4.55539,51.94399],[4.55587,51.94423],[4.55675,51.94392],[4.55768,51.94495],[4.55804,51.94481],[4.55917,51.94604],[4.55968,51.94649],[4.56031,51.94717],[4.55951,51.94744],[4.55918,51.94789],[4.56032,51.94806],[4.56115,51.94779],[4.56487,51.94828],[4.56433,51.9496],[4.5638,51.94954],[4.56337,51.9505],[4.56391,51.9506],[4.56383,51.95071],[4.56322,51.95085],[4.56014,51.95043],[4.55542,51.94972],[4.55482,51.95115],[4.55512,51.95116],[4.55498,51.95182],[4.55202,51.95158],[4.55168,51.95178],[4.5511,51.9531],[4.55089,51.95309],[4.55147,51.9517],[4.55203,51.95044]]],[[[4.48836,51.95545],[4.48533,51.94858],[4.4756,51.94954],[4.4754,51.94901],[4.47513,51.94905],[4.47485,51.94932],[4.4716,51.94986],[4.47165,51.94961],[4.47249,51.9494],[4.47224,51.94887],[4.47108,51.94866],[4.47134,51.94816],[4.47174,51.94793],[4.47271,51.94607],[4.47294,51.94598],[4.47247,51.94596],[4.46633,51.94659],[4.4654,51.94656],[4.46453,51.94677],[4.46062,51.94681],[4.46072,51.94472],[4.46596,51.94474],[4.46879,51.94397],[4.46955,51.94079],[4.47684,51.94171],[4.4856,51.94289],[4.48737,51.9415],[4.48926,51.94183],[4.49123,51.94205],[4.49191,51.94202],[4.49354,51.94169],[4.49631,51.93949],[4.49821,51.94035],[4.49841,51.94014],[4.49972,51.94076],[4.49956,51.94099],[4.50412,51.94314],[4.50682,51.94392],[4.50623,51.94404],[4.50588,51.94511],[4.49588,51.94402],[4.49523,51.94376],[4.49216,51.94338],[4.48911,51.94225],[4.4884,51.94408],[4.49189,51.94535],[4.49554,51.94543],[4.49582,51.94558],[4.49625,51.94563],[4.4963,51.94584],[4.49615,51.94587],[4.49479,51.94606],[4.49283,51.94615],[4.49073,51.94584],[4.48723,51.94746],[4.49443,51.95272],[4.49256,51.95359],[4.49381,51.95503],[4.49549,51.95415],[4.49566,51.9543],[4.49396,51.95514],[4.4944,51.95547],[4.4948,51.95555],[4.4964,51.95653],[4.49783,51.95699],[4.49719,51.95738],[4.49502,51.95849],[4.49298,51.95948],[4.49262,51.95914],[4.493,51.95898],[4.49233,51.95843],[4.49251,51.95835],[4.49342,51.95909],[4.4945,51.95853],[4.49427,51.95748],[4.49424,51.95582],[4.49272,51.95438],[4.49237,51.95417],[4.48895,51.95592],[4.48836,51.95545]]],[[[4.49942,51.93944],[4.49841,51.94014],[4.49821,51.94035],[4.49631,51.93949],[4.49747,51.93848],[4.4995,51.93693],[4.50054,51.93762],[4.50107,51.93822],[4.49942,51.93944]]],[[[4.54397,51.87185],[4.54303,51.87266],[4.5416,51.87423],[4.5408,51.87541],[4.53915,51.87889],[4.53442,51.87744],[4.53279,51.87705],[4.53305,51.87609],[4.53294,51.87508],[4.53245,51.87387],[4.53146,51.87279],[4.53059,51.8721],[4.5295,51.8716],[4.52956,51.87153],[4.53257,51.87044],[4.53387,51.87006],[4.53549,51.86949],[4.53643,51.86972],[4.53753,51.86986],[4.53865,51.86993],[4.54001,51.87017],[4.54257,51.87084],[4.54303,51.87117],[4.54346,51.87135],[4.54397,51.87185]]],[[[4.53494,51.93746],[4.53102,51.93688],[4.53122,51.93644],[4.5351,51.93708],[4.53494,51.93746]]],[[[4.51895,51.90573],[4.52394,51.90167],[4.52844,51.90099],[4.54162,51.90519],[4.53502,51.91379],[4.53381,51.91397],[4.5318,51.91356],[4.52788,51.91385],[4.52612,51.91087],[4.52582,51.9102],[4.52524,51.90951],[4.52724,51.90718],[4.52759,51.90643],[4.52704,51.90582],[4.52192,51.90579],[4.51895,51.90573]]],[[[4.48016,51.86508],[4.4799,51.86538],[4.47924,51.86523],[4.47783,51.86511],[4.47605,51.86512],[4.47562,51.86506],[4.47535,51.86494],[4.47239,51.86502],[4.46927,51.86528],[4.4682,51.86521],[4.46622,51.86522],[4.46494,51.86527],[4.46456,51.86537],[4.46416,51.86538],[4.46278,51.86534],[4.46253,51.86521],[4.46164,51.86541],[4.45996,51.8663],[4.45864,51.86724],[4.45766,51.86788],[4.4573,51.86826],[4.45602,51.86901],[4.45542,51.86901],[4.45483,51.86968],[4.45499,51.8698],[4.4547,51.87051],[4.4551,51.87087],[4.45568,51.87149],[4.45289,51.87126],[4.45077,51.87053],[4.45111,51.86911],[4.44862,51.86882],[4.44729,51.86847],[4.44677,51.86763],[4.45016,51.86619],[4.45887,51.86396],[4.46239,51.8631],[4.46552,51.86267],[4.46834,51.86244],[4.47428,51.86259],[4.48017,51.86321],[4.48016,51.86508]]],[[[4.41753,51.90148],[4.42047,51.90196],[4.42486,51.9024],[4.43578,51.90255],[4.43615,51.90375],[4.438,51.90458],[4.43981,51.90533],[4.44113,51.90569],[4.43402,51.91036],[4.43366,51.91065],[4.43281,51.91218],[4.4324,51.91244],[4.43185,51.91255],[4.43053,51.91247],[4.43032,51.91311],[4.42694,51.91325],[4.41351,51.91395],[4.4135,51.91391],[4.41278,51.91392],[4.41269,51.91389],[4.41267,51.91388],[4.41254,51.91373],[4.41253,51.9137],[4.41239,51.9133],[4.41224,51.91327],[4.41222,51.91325],[4.41205,51.91314],[4.40908,51.91205],[4.40954,51.91041],[4.41,51.90985],[4.41135,51.91027],[4.41345,51.90768],[4.4133,51.90728],[4.41362,51.90688],[4.41568,51.90502],[4.41234,51.90242],[4.41371,51.90075],[4.41753,51.90148]]],[[[4.53405,51.92524],[4.53247,51.92266],[4.53361,51.9223],[4.53474,51.9221],[4.53527,51.92205],[4.53703,51.925],[4.53405,51.92524]]]]}}]}